{
"type": "FeatureCollection",
"name": "kommuner",
"features": [
{ "type": "Feature", "properties": { "kod": "0114", "namn": "Upplands Väsby" }, "geometry": { "type": "Polygon", "coordinates": [ [ [ 17.8380677, 59.476274 ], [ 17.9971268, 59.4663163 ], [ 18.0215801, 59.5113319 ], [ 17.9808744, 59.5640591 ], [ 17.8100703, 59.5748097 ], [ 17.8070461, 59.5062032 ], [ 17.8380677, 59.476274 ] ] ] } },
{ "type": "Feature", "properties": { "kod": "0115", "namn": "Vallentuna" }, "geometry": { "type": "Polygon", "coordinates": [ [ [ 18.1434193, 59.4934529 ], [ 18.4360313, 59.5670721 ], [ 18.1464193, 59.6795871 ], [ 17.9808744, 59.5640591 ], [ 18.0215801, 59.5113319 ], [ 18.1434193, 59.4934529 ] ] ] } },
{ "type": "Feature", "properties": { "kod": "0117", "namn": "Österåker" }, "geometry": { "type": "Polygon", "coordinates": [ [ [ 18.2344696, 59.4301989 ], [ 18.6672569, 59.5773675 ], [ 18.4360313, 59.5670721 ], [ 18.1434193, 59.4934529 ], [ 18.1421791, 59.4488896 ], [ 18.2030402, 59.4239453 ], [ 18.2344696, 59.4301989 ] ] ] } },
{ "type": "Feature", "properties": { "kod": "0120", "namn": "Värmdö" }, "geometry": { "type": "Polygon", "coordinates": [ [ [ 18.3432463, 59.3314455 ], [ 18.3464786, 59.2864247 ], [ 18.5244183, 59.218364 ], [ 18.5408583, 59.2841415 ], [ 18.4123173, 59.2981017 ], [ 18.3594747, 59.3586997 ], [ 18.3432463, 59.3314455 ] ] ] } },
{ "type": "Feature", "properties": { "kod": "0123", "namn": "Järfälla" }, "geometry": { "type": "Polygon", "coordinates": [ [ [ 17.798455, 59.4727979 ], [ 17.7970096, 59.3890368 ], [ 17.8878987, 59.4287626 ], [ 17.8380677, 59.476274 ], [ 17.8070461, 59.5062032 ], [ 17.798455, 59.4727979 ] ] ] } },
{ "type": "Feature", "properties": { "kod": "0125", "namn": "Ekerö" }, "geometry": { "type": "Polygon", "coordinates": [ [ [ 17.6131429, 59.3633285 ], [ 17.5932676, 59.4292623 ], [ 17.5326784, 59.4170758 ], [ 17.6131429, 59.3633285 ] ] ] } },
{ "type": "Feature", "properties": { "kod": "0126", "namn": "Huddinge" }, "geometry": { "type": "Polygon", "coordinates": [ [ [ 18.1679032, 59.2354802 ], [ 17.8825841, 59.2732801 ], [ 17.8824715, 59.2446015 ], [ 17.9794662, 59.1614464 ], [ 18.1787439, 59.21391 ], [ 18.1679032, 59.2354802 ] ] ] } },
{ "type": "Feature", "properties": { "kod": "0127", "namn": "Botkyrka" }, "geometry": { "type": "Polygon", "coordinates": [ [ [ 17.7776603, 59.0966446 ], [ 17.9217731, 59.1281945 ], [ 17.9794662, 59.1614464 ], [ 17.8824715, 59.2446015 ], [ 17.736676, 59.2561556 ], [ 17.731868, 59.1779828 ], [ 17.6917193, 59.1426636 ], [ 17.7776603, 59.0966446 ] ] ] } },
{ "type": "Feature", "properties": { "kod": "0128", "namn": "Salem" }, "geometry": { "type": "Polygon", "coordinates": [ [ [ 17.6142841, 59.2563315 ], [ 17.731868, 59.1779828 ], [ 17.736676, 59.2561556 ], [ 17.6142841, 59.2563315 ] ] ] } },
{ "type": "Feature", "properties": { "kod": "0136", "namn": "Haninge" }, "geometry": { "type": "Polygon", "coordinates": [ [ [ 18.3788886, 59.1738405 ], [ 18.1787439, 59.21391 ], [ 17.9794662, 59.1614464 ], [ 17.9217731, 59.1281945 ], [ 18.0000292, 59.0427542 ], [ 18.3788886, 59.1738405 ] ] ] } },
{ "type": "Feature", "properties": { "kod": "0138", "namn": "Tyresö" }, "geometry": { "type": "Polygon", "coordinates": [ [ [ 18.1787439, 59.21391 ], [ 18.3788886, 59.1738405 ], [ 18.2647097, 59.2600009 ], [ 18.1888836, 59.2488379 ], [ 18.1679032, 59.2354802 ], [ 18.1787439, 59.21391 ] ] ] } },
{ "type": "Feature", "properties": { "kod": "0139", "namn": "Upplands-Bro" }, "geometry": { "type": "Polygon", "coordinates": [ [ [ 17.8100703, 59.5748097 ], [ 17.5909972, 59.6498557 ], [ 17.5669226, 59.5619786 ], [ 17.798455, 59.4727979 ], [ 17.8070461, 59.5062032 ], [ 17.8100703, 59.5748097 ] ] ] } },
{ "type": "Feature", "properties": { "kod": "0140", "namn": "Nykvarn" }, "geometry": { "type": "Polygon", "coordinates": [ [ [ 17.4178141, 59.2422728 ], [ 17.2847537, 59.2679568 ], [ 17.2541629, 59.1904335 ], [ 17.3039272, 59.1415677 ], [ 17.4178141, 59.2422728 ] ] ] } },
{ "type": "Feature", "properties": { "kod": "0160", "namn": "Täby" }, "geometry": { "type": "Polygon", "coordinates": [ [ [ 18.1434193, 59.4934529 ], [ 18.0215801, 59.5113319 ], [ 17.9971268, 59.4663163 ], [ 18.0212627, 59.4412068 ], [ 18.0968595, 59.4191962 ], [ 18.1421791, 59.4488896 ], [ 18.1434193, 59.4934529 ] ] ] } },
{ "type": "Feature", "properties": { "kod": "0162", "namn": "Danderyd" }, "geometry": { "type": "Polygon", "coordinates": [ [ [ 18.0212627, 59.4412068 ], [ 18.0000575, 59.3995848 ], [ 18.0603456, 59.3779945 ], [ 18.0968595, 59.4191962 ], [ 18.0212627, 59.4412068 ] ] ] } },
{ "type": "Feature", "properties": { "kod": "0163", "namn": "Sollentuna" }, "geometry": { "type": "Polygon", "coordinates": [ [ [ 17.9971268, 59.4663163 ], [ 17.8380677, 59.476274 ], [ 17.8878987, 59.4287626 ], [ 17.9766608, 59.3936182 ], [ 18.0000575, 59.3995848 ], [ 18.0212627, 59.4412068 ], [ 17.9971268, 59.4663163 ] ] ] } },
{ "type": "Feature", "properties": { "kod": "0180", "namn": "Stockholm" }, "geometry": { "type": "MultiPolygon", "coordinates": [ [ [ [ 18.1024642, 59.3171034 ], [ 18.0603456, 59.3779945 ], [ 17.99407, 59.3456383 ], [ 17.8825841, 59.2732801 ], [ 18.1679032, 59.2354802 ], [ 18.1888836, 59.2488379 ], [ 18.1024642, 59.3171034 ] ] ], [ [ [ 17.7970096, 59.3890368 ], [ 17.9932852, 59.3460901 ], [ 17.9721235, 59.3577933 ], [ 17.9334295, 59.3827911 ], [ 17.9766608, 59.3936182 ], [ 17.8878987, 59.4287626 ], [ 17.7970096, 59.3890368 ] ] ] ] } },
{ "type": "Feature", "properties": { "kod": "0181", "namn": "Södertälje" }, "geometry": { "type": "Polygon", "coordinates": [ [ [ 17.3039272, 59.1415677 ], [ 17.3640235, 58.9921513 ], [ 17.6189543, 58.9048463 ], [ 17.6917193, 59.1426636 ], [ 17.731868, 59.1779828 ], [ 17.6142841, 59.2563315 ], [ 17.4178141, 59.2422728 ], [ 17.3039272, 59.1415677 ] ] ] } },
{ "type": "Feature", "properties": { "kod": "0182", "namn": "Nacka" }, "geometry": { "type": "Polygon", "coordinates": [ [ [ 18.1024642, 59.3171034 ], [ 18.1888836, 59.2488379 ], [ 18.2647097, 59.2600009 ], [ 18.1024642, 59.3171034 ] ] ] } },
{ "type": "Feature", "properties": { "kod": "0183", "namn": "Sundbyberg" }, "geometry": { "type": "Polygon", "coordinates": [ [ [ 17.9766608, 59.3936182 ], [ 17.9334295, 59.3827911 ], [ 17.9721235, 59.3577933 ], [ 17.9766608, 59.3936182 ] ] ] } },
{ "type": "Feature", "properties": { "kod": "0184", "namn": "Solna" }, "geometry": { "type": "Polygon", "coordinates": [ [ [ 17.99407, 59.3456383 ], [ 18.0603456, 59.3779945 ], [ 18.0000575, 59.3995848 ], [ 17.9766608, 59.3936182 ], [ 17.9721235, 59.3577933 ], [ 17.9932852, 59.3460901 ], [ 17.99407, 59.3456383 ] ] ] } },
{ "type": "Feature", "properties": { "kod": "0186", "namn": "Lidingö" }, "geometry": { "type": "Polygon", "coordinates": [ [ [ 18.105841, 59.3897459 ], [ 18.143721, 59.3484651 ], [ 18.2145216, 59.3749085 ], [ 18.105841, 59.3897459 ] ] ] } },
{ "type": "Feature", "properties": { "kod": "0187", "namn": "Vaxholm" }, "geometry": { "type": "Polygon", "coordinates": [ [ [ 18.2030402, 59.4239453 ], [ 18.2147176, 59.3883483 ], [ 18.2942047, 59.3926859 ], [ 18.2344696, 59.4301989 ], [ 18.2030402, 59.4239453 ] ] ] } },
{ "type": "Feature", "properties": { "kod": "0188", "namn": "Norrtälje" }, "geometry": { "type": "Polygon", "coordinates": [ [ [ 18.4360313, 59.5670721 ], [ 18.6672569, 59.5773675 ], [ 19.0844602, 59.8715432 ], [ 18.7991339, 60.1719836 ], [ 18.5110258, 60.1548714 ], [ 18.381745, 60.0453222 ], [ 18.3737917, 59.8689088 ], [ 18.0891132, 59.7361702 ], [ 18.1464193, 59.6795871 ], [ 18.4360313, 59.5670721 ] ] ] } },
{ "type": "Feature", "properties": { "kod": "0191", "namn": "Sigtuna" }, "geometry": { "type": "Polygon", "coordinates": [ [ [ 17.5909972, 59.6498557 ], [ 17.8100703, 59.5748097 ], [ 17.9808744, 59.5640591 ], [ 18.1464193, 59.6795871 ], [ 18.0891132, 59.7361702 ], [ 17.635583, 59.6950224 ], [ 17.5909972, 59.6498557 ] ] ] } },
{ "type": "Feature", "properties": { "kod": "0192", "namn": "Nynäshamn" }, "geometry": { "type": "Polygon", "coordinates": [ [ [ 17.7776603, 59.0966446 ], [ 18.0000292, 59.0427542 ], [ 17.9217731, 59.1281945 ], [ 17.7776603, 59.0966446 ] ] ] } },
{ "type": "Feature", "properties": { "kod": "0305", "namn": "Håbo" }, "geometry": { "type": "Polygon", "coordinates": [ [ [ 17.5909972, 59.6498557 ], [ 17.635583, 59.6950224 ], [ 17.4793339, 59.731068 ], [ 17.3660602, 59.6122399 ], [ 17.5669226, 59.5619786 ], [ 17.5909972, 59.6498557 ] ] ] } },
{ "type": "Feature", "properties": { "kod": "0319", "namn": "Älvkarleby" }, "geometry": { "type": "Polygon", "coordinates": [ [ [ 17.3007861, 60.4711374 ], [ 17.6027599, 60.5960492 ], [ 17.3507794, 60.6523344 ], [ 17.3007861, 60.4711374 ] ] ] } },
{ "type": "Feature", "properties": { "kod": "0330", "namn": "Knivsta" }, "geometry": { "type": "Polygon", "coordinates": [ [ [ 17.6060537, 59.7337583 ], [ 17.635583, 59.6950224 ], [ 18.0891132, 59.7361702 ], [ 17.6060537, 59.7337583 ] ] ] } },
{ "type": "Feature", "properties": { "kod": "0331", "namn": "Heby" }, "geometry": { "type": "Polygon", "coordinates": [ [ [ 17.3191282, 60.1395705 ], [ 17.1995254, 60.3091931 ], [ 16.9057627, 60.2871335 ], [ 16.7204437, 60.1999074 ], [ 16.8312567, 59.8602169 ], [ 17.127571, 59.8838397 ], [ 17.3191282, 60.1395705 ] ] ] } },
{ "type": "Feature", "properties": { "kod": "0360", "namn": "Tierp" }, "geometry": { "type": "Polygon", "coordinates": [ [ [ 17.1995254, 60.3091931 ], [ 17.3191282, 60.1395705 ], [ 17.71675, 60.1476256 ], [ 17.7904595, 60.3190019 ], [ 18.1018112, 60.438116 ], [ 17.6027599, 60.5960492 ], [ 17.3007861, 60.4711374 ], [ 17.1995254, 60.3091931 ] ] ] } },
{ "type": "Feature", "properties": { "kod": "0380", "namn": "Uppsala" }, "geometry": { "type": "Polygon", "coordinates": [ [ [ 18.0891132, 59.7361702 ], [ 18.3737917, 59.8689088 ], [ 18.381745, 60.0453222 ], [ 17.945995, 60.0316033 ], [ 17.71675, 60.1476256 ], [ 17.3191282, 60.1395705 ], [ 17.127571, 59.8838397 ], [ 17.4793339, 59.731068 ], [ 17.6060537, 59.7337583 ], [ 18.0891132, 59.7361702 ] ] ] } },
{ "type": "Feature", "properties": { "kod": "0381", "namn": "Enköping" }, "geometry": { "type": "Polygon", "coordinates": [ [ [ 16.9048208, 59.5674026 ], [ 17.3660602, 59.6122399 ], [ 17.4793339, 59.731068 ], [ 17.127571, 59.8838397 ], [ 16.8312567, 59.8602169 ], [ 16.7442131, 59.7812878 ], [ 16.9048208, 59.5674026 ] ] ] } },
{ "type": "Feature", "properties": { "kod": "0382", "namn": "Östhammar" }, "geometry": { "type": "Polygon", "coordinates": [ [ [ 18.5110258, 60.1548714 ], [ 18.5810413, 60.344181 ], [ 18.1018112, 60.438116 ], [ 17.7904595, 60.3190019 ], [ 17.71675, 60.1476256 ], [ 17.945995, 60.0316033 ], [ 18.381745, 60.0453222 ], [ 18.5110258, 60.1548714 ] ] ] } },
{ "type": "Feature", "properties": { "kod": "0428", "namn": "Vingåker" }, "geometry": { "type": "Polygon", "coordinates": [ [ [ 15.6323376, 59.0031971 ], [ 15.9581487, 58.9649698 ], [ 15.8856097, 59.1707842 ], [ 15.7698102, 59.1500382 ], [ 15.6323376, 59.0031971 ] ] ] } },
{ "type": "Feature", "properties": { "kod": "0461", "namn": "Gnesta" }, "geometry": { "type": "Polygon", "coordinates": [ [ [ 17.3876834, 58.9294183 ], [ 17.3640235, 58.9921513 ], [ 17.3039272, 59.1415677 ], [ 17.2541629, 59.1904335 ], [ 16.9271247, 59.2184735 ], [ 16.9831497, 59.0605646 ], [ 17.3876834, 58.9294183 ] ] ] } },
{ "type": "Feature", "properties": { "kod": "0480", "namn": "Nyköping" }, "geometry": { "type": "Polygon", "coordinates": [ [ [ 17.0827881, 58.7212536 ], [ 17.4306486, 58.7879543 ], [ 17.3876834, 58.9294183 ], [ 16.9831497, 59.0605646 ], [ 16.5419858, 58.884721 ], [ 16.2529223, 58.8290504 ], [ 16.7483646, 58.6324526 ], [ 16.9697423, 58.6880161 ], [ 17.0827881, 58.7212536 ] ] ] } },
{ "type": "Feature", "properties": { "kod": "0481", "namn": "Oxelösund" }, "geometry": { "type": "Polygon", "coordinates": [ [ [ 17.0827881, 58.7212536 ], [ 16.9697423, 58.6880161 ], [ 17.0887455, 58.6616045 ], [ 17.0827881, 58.7212536 ] ] ] } },
{ "type": "Feature", "properties": { "kod": "0482", "namn": "Flen" }, "geometry": { "type": "Polygon", "coordinates": [ [ [ 16.442009, 59.2081594 ], [ 16.5419858, 58.884721 ], [ 16.9831497, 59.0605646 ], [ 16.9271247, 59.2184735 ], [ 16.8254333, 59.2512948 ], [ 16.442009, 59.2081594 ] ] ] } },
{ "type": "Feature", "properties": { "kod": "0483", "namn": "Katrineholm" }, "geometry": { "type": "Polygon", "coordinates": [ [ [ 16.5419858, 58.884721 ], [ 16.442009, 59.2081594 ], [ 16.0712318, 59.2410087 ], [ 15.8856097, 59.1707842 ], [ 15.9581487, 58.9649698 ], [ 16.1670304, 58.8573896 ], [ 16.2529223, 58.8290504 ], [ 16.5419858, 58.884721 ] ] ] } },
{ "type": "Feature", "properties": { "kod": "0484", "namn": "Eskilstuna" }, "geometry": { "type": "Polygon", "coordinates": [ [ [ 16.7041421, 59.4654984 ], [ 16.2308441, 59.4427065 ], [ 15.9976122, 59.3746007 ], [ 15.8544147, 59.2996682 ], [ 16.0712318, 59.2410087 ], [ 16.442009, 59.2081594 ], [ 16.8254333, 59.2512948 ], [ 16.7041421, 59.4654984 ] ] ] } },
{ "type": "Feature", "properties": { "kod": "0486", "namn": "Strängnäs" }, "geometry": { "type": "Polygon", "coordinates": [ [ [ 17.2847537, 59.2679568 ], [ 16.7041421, 59.4654984 ], [ 16.8254333, 59.2512948 ], [ 16.9271247, 59.2184735 ], [ 17.2541629, 59.1904335 ], [ 17.2847537, 59.2679568 ] ] ] } },
{ "type": "Feature", "properties": { "kod": "0488", "namn": "Trosa" }, "geometry": { "type": "Polygon", "coordinates": [ [ [ 17.3876834, 58.9294183 ], [ 17.4306486, 58.7879543 ], [ 17.6189543, 58.9048463 ], [ 17.3640235, 58.9921513 ], [ 17.3876834, 58.9294183 ] ] ] } },
{ "type": "Feature", "properties": { "kod": "0509", "namn": "Ödeshög" }, "geometry": { "type": "Polygon", "coordinates": [ [ [ 14.9336867, 58.1311151 ], [ 14.8720096, 58.2530565 ], [ 14.8435723, 58.343681 ], [ 14.6462619, 58.3497636 ], [ 14.537647, 58.1061351 ], [ 14.6041265, 58.0924946 ], [ 14.9336867, 58.1311151 ] ] ] } },
{ "type": "Feature", "properties": { "kod": "0512", "namn": "Ydre" }, "geometry": { "type": "Polygon", "coordinates": [ [ [ 14.9831073, 57.9344951 ], [ 15.1002565, 57.758748 ], [ 15.4158547, 57.7009114 ], [ 15.5364649, 57.7962864 ], [ 15.363143, 57.9752086 ], [ 15.0256474, 58.0321573 ], [ 14.9831073, 57.9344951 ] ] ] } },
{ "type": "Feature", "properties": { "kod": "0513", "namn": "Kinda" }, "geometry": { "type": "Polygon", "coordinates": [ [ [ 15.9988182, 58.0877514 ], [ 15.8047507, 58.2125111 ], [ 15.3745151, 58.070375 ], [ 15.363143, 57.9752086 ], [ 15.5364649, 57.7962864 ], [ 16.0667638, 57.8647589 ], [ 15.9988182, 58.0877514 ] ] ] } },
{ "type": "Feature", "properties": { "kod": "0560", "namn": "Boxholm" }, "geometry": { "type": "Polygon", "coordinates": [ [ [ 14.8720096, 58.2530565 ], [ 14.9336867, 58.1311151 ], [ 15.0256474, 58.0321573 ], [ 15.363143, 57.9752086 ], [ 15.3745151, 58.070375 ], [ 15.2675903, 58.1379509 ], [ 14.8720096, 58.2530565 ] ] ] } },
{ "type": "Feature", "properties": { "kod": "0561", "namn": "Åtvidaberg" }, "geometry": { "type": "Polygon", "coordinates": [ [ [ 15.8047507, 58.2125111 ], [ 15.9988182, 58.0877514 ], [ 16.3719833, 58.1513996 ], [ 16.232783, 58.3203514 ], [ 16.0473604, 58.3773305 ], [ 15.8047507, 58.2125111 ] ] ] } },
{ "type": "Feature", "properties": { "kod": "0562", "namn": "Finspång" }, "geometry": { "type": "Polygon", "coordinates": [ [ [ 15.6080034, 58.6173897 ], [ 15.9189708, 58.6223368 ], [ 16.1670304, 58.8573896 ], [ 15.9581487, 58.9649698 ], [ 15.6323376, 59.0031971 ], [ 15.5306691, 58.9446143 ], [ 15.4194012, 58.8309181 ], [ 15.4792235, 58.6441472 ], [ 15.6080034, 58.6173897 ] ] ] } },
{ "type": "Feature", "properties": { "kod": "0563", "namn": "Valdemarsvik" }, "geometry": { "type": "Polygon", "coordinates": [ [ [ 16.680985, 58.2661211 ], [ 16.232783, 58.3203514 ], [ 16.3719833, 58.1513996 ], [ 16.7488185, 58.0041518 ], [ 16.680985, 58.2661211 ] ] ] } },
{ "type": "Feature", "properties": { "kod": "0580", "namn": "Linköping" }, "geometry": { "type": "Polygon", "coordinates": [ [ [ 15.8047507, 58.2125111 ], [ 16.0473604, 58.3773305 ], [ 15.9996211, 58.4177033 ], [ 15.6080034, 58.6173897 ], [ 15.4792235, 58.6441472 ], [ 15.287378, 58.4332893 ], [ 15.2675903, 58.1379509 ], [ 15.3745151, 58.070375 ], [ 15.8047507, 58.2125111 ] ] ] } },
{ "type": "Feature", "properties": { "kod": "0581", "namn": "Norrköping" }, "geometry": { "type": "Polygon", "coordinates": [ [ [ 16.1670304, 58.8573896 ], [ 15.9189708, 58.6223368 ], [ 15.6080034, 58.6173897 ], [ 15.9996211, 58.4177033 ], [ 16.1351633, 58.5293197 ], [ 16.5649239, 58.4411916 ], [ 16.7483646, 58.6324526 ], [ 16.2529223, 58.8290504 ], [ 16.1670304, 58.8573896 ] ] ] } },
{ "type": "Feature", "properties": { "kod": "0582", "namn": "Söderköping" }, "geometry": { "type": "Polygon", "coordinates": [ [ [ 16.680985, 58.2661211 ], [ 16.5649239, 58.4411916 ], [ 16.1351633, 58.5293197 ], [ 15.9996211, 58.4177033 ], [ 16.0473604, 58.3773305 ], [ 16.232783, 58.3203514 ], [ 16.680985, 58.2661211 ] ] ] } },
{ "type": "Feature", "properties": { "kod": "0583", "namn": "Motala" }, "geometry": { "type": "Polygon", "coordinates": [ [ [ 15.3391896, 58.8472329 ], [ 14.9395751, 58.6990589 ], [ 14.9614705, 58.5180736 ], [ 14.9910902, 58.4116858 ], [ 15.287378, 58.4332893 ], [ 15.4792235, 58.6441472 ], [ 15.4194012, 58.8309181 ], [ 15.3391896, 58.8472329 ] ] ] } },
{ "type": "Feature", "properties": { "kod": "0584", "namn": "Vadstena" }, "geometry": { "type": "Polygon", "coordinates": [ [ [ 14.9910902, 58.4116858 ], [ 14.9614705, 58.5180736 ], [ 14.6462619, 58.3497636 ], [ 14.8435723, 58.343681 ], [ 14.9910902, 58.4116858 ] ] ] } },
{ "type": "Feature", "properties": { "kod": "0586", "namn": "Mjölby" }, "geometry": { "type": "Polygon", "coordinates": [ [ [ 14.8720096, 58.2530565 ], [ 15.2675903, 58.1379509 ], [ 15.287378, 58.4332893 ], [ 14.9910902, 58.4116858 ], [ 14.8435723, 58.343681 ], [ 14.8720096, 58.2530565 ] ] ] } },
{ "type": "Feature", "properties": { "kod": "0604", "namn": "Aneby" }, "geometry": { "type": "Polygon", "coordinates": [ [ [ 14.9610234, 57.7531974 ], [ 15.1002565, 57.758748 ], [ 14.9831073, 57.9344951 ], [ 14.6236701, 58.0005873 ], [ 14.6428766, 57.7678306 ], [ 14.9610234, 57.7531974 ] ] ] } },
{ "type": "Feature", "properties": { "kod": "0617", "namn": "Gnosjö" }, "geometry": { "type": "Polygon", "coordinates": [ [ [ 13.8985255, 57.4713498 ], [ 13.7145424, 57.2471433 ], [ 14.0590965, 57.3025279 ], [ 13.8985255, 57.4713498 ] ] ] } },
{ "type": "Feature", "properties": { "kod": "0642", "namn": "Mullsjö" }, "geometry": { "type": "Polygon", "coordinates": [ [ [ 13.8537231, 57.869254 ], [ 13.9601744, 58.0094092 ], [ 13.7763428, 58.0499834 ], [ 13.7088746, 57.9375685 ], [ 13.7414492, 57.8435405 ], [ 13.8537231, 57.869254 ] ] ] } },
{ "type": "Feature", "properties": { "kod": "0643", "namn": "Habo" }, "geometry": { "type": "Polygon", "coordinates": [ [ [ 13.8537231, 57.869254 ], [ 14.1141225, 57.8857666 ], [ 14.2130299, 58.1456872 ], [ 14.1132418, 58.1516647 ], [ 13.9601744, 58.0094092 ], [ 13.8537231, 57.869254 ] ] ] } },
{ "type": "Feature", "properties": { "kod": "0662", "namn": "Gislaved" }, "geometry": { "type": "Polygon", "coordinates": [ [ [ 13.0901825, 57.0956375 ], [ 13.4596853, 57.1094592 ], [ 13.6849819, 56.9863608 ], [ 13.7467562, 57.0682965 ], [ 13.7145424, 57.2471433 ], [ 13.8985255, 57.4713498 ], [ 13.825791, 57.6070129 ], [ 13.6820859, 57.5612415 ], [ 13.2935112, 57.3034861 ], [ 13.1333143, 57.1491384 ], [ 13.0901825, 57.0956375 ] ] ] } },
{ "type": "Feature", "properties": { "kod": "0665", "namn": "Vaggeryd" }, "geometry": { "type": "Polygon", "coordinates": [ [ [ 14.328863, 57.5404443 ], [ 13.825791, 57.6070129 ], [ 13.8985255, 57.4713498 ], [ 14.0590965, 57.3025279 ], [ 14.370384, 57.3815944 ], [ 14.4572073, 57.4933184 ], [ 14.328863, 57.5404443 ] ] ] } },
{ "type": "Feature", "properties": { "kod": "0680", "namn": "Jönköping" }, "geometry": { "type": "Polygon", "coordinates": [ [ [ 13.825791, 57.6070129 ], [ 14.328863, 57.5404443 ], [ 14.6428766, 57.7678306 ], [ 14.6236701, 58.0005873 ], [ 14.6041265, 58.0924946 ], [ 14.537647, 58.1061351 ], [ 14.1141225, 57.8857666 ], [ 13.8537231, 57.869254 ], [ 13.7414492, 57.8435405 ], [ 13.7074516, 57.7073909 ], [ 13.6820859, 57.5612415 ], [ 13.825791, 57.6070129 ] ] ] } },
{ "type": "Feature", "properties": { "kod": "0682", "namn": "Nässjö" }, "geometry": { "type": "Polygon", "coordinates": [ [ [ 14.328863, 57.5404443 ], [ 14.4572073, 57.4933184 ], [ 14.8222145, 57.4090569 ], [ 14.8514473, 57.5971724 ], [ 14.9610234, 57.7531974 ], [ 14.6428766, 57.7678306 ], [ 14.328863, 57.5404443 ] ] ] } },
{ "type": "Feature", "properties": { "kod": "0683", "namn": "Värnamo" }, "geometry": { "type": "Polygon", "coordinates": [ [ [ 14.2920116, 56.8824664 ], [ 14.3875164, 57.1550288 ], [ 14.370384, 57.3815944 ], [ 14.0590965, 57.3025279 ], [ 13.7145424, 57.2471433 ], [ 13.7467562, 57.0682965 ], [ 14.1348463, 57.0419643 ], [ 14.2920116, 56.8824664 ] ] ] } },
{ "type": "Feature", "properties": { "kod": "0684", "namn": "Sävsjö" }, "geometry": { "type": "Polygon", "coordinates": [ [ [ 14.487334, 57.157709 ], [ 14.7876644, 57.2320738 ], [ 14.8222145, 57.4090569 ], [ 14.4572073, 57.4933184 ], [ 14.370384, 57.3815944 ], [ 14.3875164, 57.1550288 ], [ 14.487334, 57.157709 ] ] ] } },
{ "type": "Feature", "properties": { "kod": "0685", "namn": "Vetlanda" }, "geometry": { "type": "Polygon", "coordinates": [ [ [ 15.5782002, 57.5556537 ], [ 15.3629751, 57.4996856 ], [ 14.8514473, 57.5971724 ], [ 14.8222145, 57.4090569 ], [ 14.7876644, 57.2320738 ], [ 15.067762, 57.1888504 ], [ 15.5299749, 57.1999568 ], [ 15.5782002, 57.5556537 ] ] ] } },
{ "type": "Feature", "properties": { "kod": "0686", "namn": "Eksjö" }, "geometry": { "type": "Polygon", "coordinates": [ [ [ 14.9610234, 57.7531974 ], [ 14.8514473, 57.5971724 ], [ 15.3629751, 57.4996856 ], [ 15.5782002, 57.5556537 ], [ 15.6532354, 57.6071999 ], [ 15.4158547, 57.7009114 ], [ 15.1002565, 57.758748 ], [ 14.9610234, 57.7531974 ] ] ] } },
{ "type": "Feature", "properties": { "kod": "0687", "namn": "Tranås" }, "geometry": { "type": "Polygon", "coordinates": [ [ [ 14.9336867, 58.1311151 ], [ 14.6041265, 58.0924946 ], [ 14.6236701, 58.0005873 ], [ 14.9831073, 57.9344951 ], [ 15.0256474, 58.0321573 ], [ 14.9336867, 58.1311151 ] ] ] } },
{ "type": "Feature", "properties": { "kod": "0760", "namn": "Uppvidinge" }, "geometry": { "type": "Polygon", "coordinates": [ [ [ 15.067762, 57.1888504 ], [ 15.1849658, 56.8380802 ], [ 15.5100186, 56.8983507 ], [ 15.7365249, 57.0707851 ], [ 15.5299749, 57.1999568 ], [ 15.067762, 57.1888504 ] ] ] } },
{ "type": "Feature", "properties": { "kod": "0761", "namn": "Lessebo" }, "geometry": { "type": "Polygon", "coordinates": [ [ [ 15.1305204, 56.7092599 ], [ 15.3621624, 56.6046134 ], [ 15.5516511, 56.8361214 ], [ 15.5100186, 56.8983507 ], [ 15.1849658, 56.8380802 ], [ 15.1305204, 56.7092599 ] ] ] } },
{ "type": "Feature", "properties": { "kod": "0763", "namn": "Tingsryd" }, "geometry": { "type": "Polygon", "coordinates": [ [ [ 14.9205912, 56.3832809 ], [ 15.3357394, 56.4868429 ], [ 15.3621624, 56.6046134 ], [ 15.1305204, 56.7092599 ], [ 14.6773434, 56.6786329 ], [ 14.5870649, 56.5450202 ], [ 14.5969023, 56.4517733 ], [ 14.6686342, 56.4009085 ], [ 14.9205912, 56.3832809 ] ] ] } },
{ "type": "Feature", "properties": { "kod": "0764", "namn": "Alvesta" }, "geometry": { "type": "Polygon", "coordinates": [ [ [ 14.6773434, 56.6786329 ], [ 14.6939415, 56.9625571 ], [ 14.487334, 57.157709 ], [ 14.3875164, 57.1550288 ], [ 14.2920116, 56.8824664 ], [ 14.292458, 56.7566699 ], [ 14.5870649, 56.5450202 ], [ 14.6773434, 56.6786329 ] ] ] } },
{ "type": "Feature", "properties": { "kod": "0765", "namn": "Älmhult" }, "geometry": { "type": "Polygon", "coordinates": [ [ [ 13.7913889, 56.6098117 ], [ 13.7050794, 56.4278887 ], [ 14.1333767, 56.5077762 ], [ 14.5243875, 56.458068 ], [ 14.5969023, 56.4517733 ], [ 14.5870649, 56.5450202 ], [ 14.292458, 56.7566699 ], [ 13.7913889, 56.6098117 ] ] ] } },
{ "type": "Feature", "properties": { "kod": "0767", "namn": "Markaryd" }, "geometry": { "type": "Polygon", "coordinates": [ [ [ 13.4020806, 56.613723 ], [ 13.4572243, 56.4309574 ], [ 13.5770109, 56.4093193 ], [ 13.7050794, 56.4278887 ], [ 13.7913889, 56.6098117 ], [ 13.4020806, 56.613723 ] ] ] } },
{ "type": "Feature", "properties": { "kod": "0780", "namn": "Växjö" }, "geometry": { "type": "Polygon", "coordinates": [ [ [ 14.487334, 57.157709 ], [ 14.6939415, 56.9625571 ], [ 14.6773434, 56.6786329 ], [ 15.1305204, 56.7092599 ], [ 15.1849658, 56.8380802 ], [ 15.067762, 57.1888504 ], [ 14.7876644, 57.2320738 ], [ 14.487334, 57.157709 ] ] ] } },
{ "type": "Feature", "properties": { "kod": "0781", "namn": "Ljungby" }, "geometry": { "type": "Polygon", "coordinates": [ [ [ 13.4020806, 56.613723 ], [ 13.7913889, 56.6098117 ], [ 14.292458, 56.7566699 ], [ 14.2920116, 56.8824664 ], [ 14.1348463, 57.0419643 ], [ 13.7467562, 57.0682965 ], [ 13.6849819, 56.9863608 ], [ 13.2962837, 56.8472907 ], [ 13.32624, 56.6933642 ], [ 13.4020806, 56.613723 ] ] ] } },
{ "type": "Feature", "properties": { "kod": "0821", "namn": "Högsby" }, "geometry": { "type": "Polygon", "coordinates": [ [ [ 16.045833, 57.2659862 ], [ 15.5299749, 57.1999568 ], [ 15.7365249, 57.0707851 ], [ 16.1934384, 56.9847881 ], [ 16.1582941, 57.2339537 ], [ 16.045833, 57.2659862 ] ] ] } },
{ "type": "Feature", "properties": { "kod": "0834", "namn": "Torsås" }, "geometry": { "type": "Polygon", "coordinates": [ [ [ 16.0520585, 56.324143 ], [ 16.1196488, 56.4705578 ], [ 15.7590905, 56.5361551 ], [ 15.6556833, 56.4443435 ], [ 16.0520585, 56.324143 ] ] ] } },
{ "type": "Feature", "properties": { "kod": "0840", "namn": "Mörbylånga" }, "geometry": { "type": "Polygon", "coordinates": [ [ [ 16.5209473, 56.7652201 ], [ 16.3883339, 56.578664 ], [ 16.5573241, 56.4093427 ], [ 16.7025365, 56.6782309 ], [ 16.5209473, 56.7652201 ] ] ] } },
{ "type": "Feature", "properties": { "kod": "0860", "namn": "Hultsfred" }, "geometry": { "type": "Polygon", "coordinates": [ [ [ 16.2057073, 57.4849669 ], [ 15.6532354, 57.6071999 ], [ 15.5782002, 57.5556537 ], [ 15.5299749, 57.1999568 ], [ 16.045833, 57.2659862 ], [ 16.2057073, 57.4849669 ] ] ] } },
{ "type": "Feature", "properties": { "kod": "0861", "namn": "Mönsterås" }, "geometry": { "type": "Polygon", "coordinates": [ [ [ 16.4977744, 57.1328103 ], [ 16.1582941, 57.2339537 ], [ 16.1934384, 56.9847881 ], [ 16.2339392, 56.9362278 ], [ 16.435898, 56.8876117 ], [ 16.4977744, 57.1328103 ] ] ] } },
{ "type": "Feature", "properties": { "kod": "0862", "namn": "Emmaboda" }, "geometry": { "type": "Polygon", "coordinates": [ [ [ 15.7669822, 56.6026225 ], [ 15.5516511, 56.8361214 ], [ 15.3621624, 56.6046134 ], [ 15.3357394, 56.4868429 ], [ 15.4813491, 56.4822644 ], [ 15.6556833, 56.4443435 ], [ 15.7590905, 56.5361551 ], [ 15.7669822, 56.6026225 ] ] ] } },
{ "type": "Feature", "properties": { "kod": "0880", "namn": "Kalmar" }, "geometry": { "type": "Polygon", "coordinates": [ [ [ 15.7590905, 56.5361551 ], [ 16.1196488, 56.4705578 ], [ 16.435898, 56.8876117 ], [ 16.2339392, 56.9362278 ], [ 16.1235768, 56.7521748 ], [ 15.7669822, 56.6026225 ], [ 15.7590905, 56.5361551 ] ] ] } },
{ "type": "Feature", "properties": { "kod": "0881", "namn": "Nybro" }, "geometry": { "type": "Polygon", "coordinates": [ [ [ 15.5516511, 56.8361214 ], [ 15.7669822, 56.6026225 ], [ 16.1235768, 56.7521748 ], [ 16.2339392, 56.9362278 ], [ 16.1934384, 56.9847881 ], [ 15.7365249, 57.0707851 ], [ 15.5100186, 56.8983507 ], [ 15.5516511, 56.8361214 ] ] ] } },
{ "type": "Feature", "properties": { "kod": "0882", "namn": "Oskarshamn" }, "geometry": { "type": "Polygon", "coordinates": [ [ [ 16.1582941, 57.2339537 ], [ 16.4977744, 57.1328103 ], [ 16.5788774, 57.5808546 ], [ 16.2917979, 57.5324448 ], [ 16.2057073, 57.4849669 ], [ 16.045833, 57.2659862 ], [ 16.1582941, 57.2339537 ] ] ] } },
{ "type": "Feature", "properties": { "kod": "0883", "namn": "Västervik" }, "geometry": { "type": "Polygon", "coordinates": [ [ [ 16.5788774, 57.5808546 ], [ 16.5332593, 57.8478584 ], [ 16.7488185, 58.0041518 ], [ 16.3719833, 58.1513996 ], [ 15.9988182, 58.0877514 ], [ 16.0667638, 57.8647589 ], [ 16.2917979, 57.5324448 ], [ 16.5788774, 57.5808546 ] ] ] } },
{ "type": "Feature", "properties": { "kod": "0884", "namn": "Vimmerby" }, "geometry": { "type": "Polygon", "coordinates": [ [ [ 15.6532354, 57.6071999 ], [ 16.2057073, 57.4849669 ], [ 16.2917979, 57.5324448 ], [ 16.0667638, 57.8647589 ], [ 15.5364649, 57.7962864 ], [ 15.4158547, 57.7009114 ], [ 15.6532354, 57.6071999 ] ] ] } },
{ "type": "Feature", "properties": { "kod": "0885", "namn": "Borgholm" }, "geometry": { "type": "Polygon", "coordinates": [ [ [ 16.7025365, 56.6782309 ], [ 16.8269645, 56.8325438 ], [ 16.6083597, 56.8823877 ], [ 16.5209473, 56.7652201 ], [ 16.7025365, 56.6782309 ] ] ] } },
{ "type": "Feature", "properties": { "kod": "0980", "namn": "Gotland" }, "geometry": { "type": "Polygon", "coordinates": [ [ [ 18.4803825, 57.8360773 ], [ 18.0909302, 57.5242878 ], [ 18.1311815, 57.1739394 ], [ 18.6568019, 57.2355252 ], [ 18.7973574, 57.7511544 ], [ 18.4803825, 57.8360773 ] ] ] } },
{ "type": "Feature", "properties": { "kod": "1060", "namn": "Olofström" }, "geometry": { "type": "Polygon", "coordinates": [ [ [ 14.6364819, 56.205161 ], [ 14.6686342, 56.4009085 ], [ 14.5969023, 56.4517733 ], [ 14.5243875, 56.458068 ], [ 14.4109252, 56.3066584 ], [ 14.4408186, 56.2301341 ], [ 14.5719775, 56.1996289 ], [ 14.6364819, 56.205161 ] ] ] } },
{ "type": "Feature", "properties": { "kod": "1080", "namn": "Karlskrona" }, "geometry": { "type": "Polygon", "coordinates": [ [ [ 15.4813491, 56.4822644 ], [ 15.495682, 56.1774818 ], [ 15.8513996, 56.0838283 ], [ 16.0520585, 56.324143 ], [ 15.6556833, 56.4443435 ], [ 15.4813491, 56.4822644 ] ] ] } },
{ "type": "Feature", "properties": { "kod": "1081", "namn": "Ronneby" }, "geometry": { "type": "Polygon", "coordinates": [ [ [ 15.3357394, 56.4868429 ], [ 14.9205912, 56.3832809 ], [ 15.0605611, 56.1878755 ], [ 15.495682, 56.1774818 ], [ 15.4813491, 56.4822644 ], [ 15.3357394, 56.4868429 ] ] ] } },
{ "type": "Feature", "properties": { "kod": "1082", "namn": "Karlshamn" }, "geometry": { "type": "Polygon", "coordinates": [ [ [ 14.6364819, 56.205161 ], [ 14.6796249, 56.1594322 ], [ 15.0605611, 56.1878755 ], [ 14.9205912, 56.3832809 ], [ 14.6686342, 56.4009085 ], [ 14.6364819, 56.205161 ] ] ] } },
{ "type": "Feature", "properties": { "kod": "1083", "namn": "Sölvesborg" }, "geometry": { "type": "Polygon", "coordinates": [ [ [ 14.6364819, 56.205161 ], [ 14.5719775, 56.1996289 ], [ 14.5459651, 56.0456941 ], [ 14.6796249, 56.1594322 ], [ 14.6364819, 56.205161 ] ] ] } },
{ "type": "Feature", "properties": { "kod": "1214", "namn": "Svalöv" }, "geometry": { "type": "Polygon", "coordinates": [ [ [ 13.1362239, 55.8388991 ], [ 13.3408098, 56.0140775 ], [ 13.1003539, 56.0955104 ], [ 13.0638077, 56.079617 ], [ 12.9846132, 55.9813902 ], [ 12.9479835, 55.9268026 ], [ 13.0477827, 55.8483029 ], [ 13.1362239, 55.8388991 ] ] ] } },
{ "type": "Feature", "properties": { "kod": "1230", "namn": "Staffanstorp" }, "geometry": { "type": "Polygon", "coordinates": [ [ [ 13.3039315, 55.6063704 ], [ 13.1157491, 55.7035476 ], [ 13.1192796, 55.6621127 ], [ 13.1294107, 55.6152689 ], [ 13.1463703, 55.6039753 ], [ 13.3039315, 55.6063704 ] ] ] } },
{ "type": "Feature", "properties": { "kod": "1231", "namn": "Burlöv" }, "geometry": { "type": "Polygon", "coordinates": [ [ [ 13.1294107, 55.6152689 ], [ 13.1192796, 55.6621127 ], [ 13.0531895, 55.6466823 ], [ 13.0545668, 55.6361193 ], [ 13.1294107, 55.6152689 ] ] ] } },
{ "type": "Feature", "properties": { "kod": "1233", "namn": "Vellinge" }, "geometry": { "type": "Polygon", "coordinates": [ [ [ 12.9371096, 55.5049162 ], [ 13.0109607, 55.3915976 ], [ 13.1645467, 55.4830927 ], [ 13.1062595, 55.5271428 ], [ 12.9371096, 55.5049162 ] ] ] } },
{ "type": "Feature", "properties": { "kod": "1256", "namn": "Östra Göinge" }, "geometry": { "type": "Polygon", "coordinates": [ [ [ 14.4109252, 56.3066584 ], [ 13.9882271, 56.323058 ], [ 14.0059465, 56.1537337 ], [ 14.4109252, 56.3066584 ] ] ] } },
{ "type": "Feature", "properties": { "kod": "1257", "namn": "Örkelljunga" }, "geometry": { "type": "Polygon", "coordinates": [ [ [ 13.1187958, 56.2299131 ], [ 13.2673951, 56.2175399 ], [ 13.4191244, 56.2679641 ], [ 13.5770109, 56.4093193 ], [ 13.4572243, 56.4309574 ], [ 13.20213, 56.3285231 ], [ 13.1187958, 56.2299131 ] ] ] } },
{ "type": "Feature", "properties": { "kod": "1260", "namn": "Bjuv" }, "geometry": { "type": "Polygon", "coordinates": [ [ [ 12.9846132, 55.9813902 ], [ 13.0638077, 56.079617 ], [ 12.882785, 56.1093058 ], [ 12.9846132, 55.9813902 ] ] ] } },
{ "type": "Feature", "properties": { "kod": "1261", "namn": "Kävlinge" }, "geometry": { "type": "Polygon", "coordinates": [ [ [ 12.9979039, 55.7247715 ], [ 13.1356583, 55.7482262 ], [ 13.213664, 55.7919399 ], [ 13.1362239, 55.8388991 ], [ 13.0477827, 55.8483029 ], [ 12.9264728, 55.8263262 ], [ 12.9979039, 55.7247715 ] ] ] } },
{ "type": "Feature", "properties": { "kod": "1262", "namn": "Lomma" }, "geometry": { "type": "Polygon", "coordinates": [ [ [ 13.1356583, 55.7482262 ], [ 12.9979039, 55.7247715 ], [ 13.0531895, 55.6466823 ], [ 13.1192796, 55.6621127 ], [ 13.1157491, 55.7035476 ], [ 13.1356583, 55.7482262 ] ] ] } },
{ "type": "Feature", "properties": { "kod": "1263", "namn": "Svedala" }, "geometry": { "type": "Polygon", "coordinates": [ [ [ 13.1645467, 55.4830927 ], [ 13.4503502, 55.5277563 ], [ 13.3039315, 55.6063704 ], [ 13.1463703, 55.6039753 ], [ 13.1062595, 55.5271428 ], [ 13.1645467, 55.4830927 ] ] ] } },
{ "type": "Feature", "properties": { "kod": "1264", "namn": "Skurup" }, "geometry": { "type": "Polygon", "coordinates": [ [ [ 13.4503502, 55.5277563 ], [ 13.4849071, 55.3821274 ], [ 13.6490007, 55.4211372 ], [ 13.6488223, 55.5282274 ], [ 13.5186295, 55.5823392 ], [ 13.4503502, 55.5277563 ] ] ] } },
{ "type": "Feature", "properties": { "kod": "1265", "namn": "Sjöbo" }, "geometry": { "type": "Polygon", "coordinates": [ [ [ 13.5611103, 55.6981967 ], [ 13.5186295, 55.5823392 ], [ 13.6488223, 55.5282274 ], [ 13.8587051, 55.5732713 ], [ 13.9132407, 55.7510494 ], [ 13.6102929, 55.7436126 ], [ 13.5611103, 55.6981967 ] ] ] } },
{ "type": "Feature", "properties": { "kod": "1266", "namn": "Hörby" }, "geometry": { "type": "Polygon", "coordinates": [ [ [ 13.6102929, 55.7436126 ], [ 13.9132407, 55.7510494 ], [ 13.957156, 55.7819568 ], [ 13.7429331, 55.9481818 ], [ 13.6253728, 55.960951 ], [ 13.5554656, 55.8277082 ], [ 13.6102929, 55.7436126 ] ] ] } },
{ "type": "Feature", "properties": { "kod": "1267", "namn": "Höör" }, "geometry": { "type": "Polygon", "coordinates": [ [ [ 13.3693312, 56.0117162 ], [ 13.5554656, 55.8277082 ], [ 13.6253728, 55.960951 ], [ 13.5097556, 56.0840129 ], [ 13.3693312, 56.0117162 ] ] ] } },
{ "type": "Feature", "properties": { "kod": "1270", "namn": "Tomelilla" }, "geometry": { "type": "Polygon", "coordinates": [ [ [ 14.1042146, 55.7591644 ], [ 13.957156, 55.7819568 ], [ 13.9132407, 55.7510494 ], [ 13.8587051, 55.5732713 ], [ 14.0979451, 55.4888957 ], [ 14.1042146, 55.7591644 ] ] ] } },
{ "type": "Feature", "properties": { "kod": "1272", "namn": "Bromölla" }, "geometry": { "type": "Polygon", "coordinates": [ [ [ 14.4408186, 56.2301341 ], [ 14.4681147, 56.0300167 ], [ 14.5459651, 56.0456941 ], [ 14.5719775, 56.1996289 ], [ 14.4408186, 56.2301341 ] ] ] } },
{ "type": "Feature", "properties": { "kod": "1273", "namn": "Osby" }, "geometry": { "type": "Polygon", "coordinates": [ [ [ 14.4109252, 56.3066584 ], [ 14.5243875, 56.458068 ], [ 14.1333767, 56.5077762 ], [ 13.7050794, 56.4278887 ], [ 13.9882271, 56.323058 ], [ 14.4109252, 56.3066584 ] ] ] } },
{ "type": "Feature", "properties": { "kod": "1275", "namn": "Perstorp" }, "geometry": { "type": "Polygon", "coordinates": [ [ [ 13.2673951, 56.2175399 ], [ 13.4351612, 56.1089873 ], [ 13.4191244, 56.2679641 ], [ 13.2673951, 56.2175399 ] ] ] } },
{ "type": "Feature", "properties": { "kod": "1276", "namn": "Klippan" }, "geometry": { "type": "Polygon", "coordinates": [ [ [ 13.1003539, 56.0955104 ], [ 13.3408098, 56.0140775 ], [ 13.3693312, 56.0117162 ], [ 13.5097556, 56.0840129 ], [ 13.4351612, 56.1089873 ], [ 13.2673951, 56.2175399 ], [ 13.1187958, 56.2299131 ], [ 13.0101099, 56.1912016 ], [ 13.1003539, 56.0955104 ] ] ] } },
{ "type": "Feature", "properties": { "kod": "1277", "namn": "Åstorp" }, "geometry": { "type": "Polygon", "coordinates": [ [ [ 13.0101099, 56.1912016 ], [ 12.8414427, 56.1355994 ], [ 12.882785, 56.1093058 ], [ 13.0638077, 56.079617 ], [ 13.1003539, 56.0955104 ], [ 13.0101099, 56.1912016 ] ] ] } },
{ "type": "Feature", "properties": { "kod": "1278", "namn": "Båstad" }, "geometry": { "type": "Polygon", "coordinates": [ [ [ 12.7693235, 56.3222413 ], [ 12.9469211, 56.3674007 ], [ 12.9037868, 56.4442354 ], [ 12.7693235, 56.3222413 ] ] ] } },
{ "type": "Feature", "properties": { "kod": "1280", "namn": "Malmö" }, "geometry": { "type": "Polygon", "coordinates": [ [ [ 13.0545668, 55.6361193 ], [ 12.9371096, 55.5049162 ], [ 13.1062595, 55.5271428 ], [ 13.1463703, 55.6039753 ], [ 13.1294107, 55.6152689 ], [ 13.0545668, 55.6361193 ] ] ] } },
{ "type": "Feature", "properties": { "kod": "1281", "namn": "Lund" }, "geometry": { "type": "Polygon", "coordinates": [ [ [ 13.1157491, 55.7035476 ], [ 13.3039315, 55.6063704 ], [ 13.4503502, 55.5277563 ], [ 13.5186295, 55.5823392 ], [ 13.5611103, 55.6981967 ], [ 13.213664, 55.7919399 ], [ 13.1356583, 55.7482262 ], [ 13.1157491, 55.7035476 ] ] ] } },
{ "type": "Feature", "properties": { "kod": "1282", "namn": "Landskrona" }, "geometry": { "type": "Polygon", "coordinates": [ [ [ 12.9479835, 55.9268026 ], [ 12.7765372, 55.9614114 ], [ 12.9264728, 55.8263262 ], [ 13.0477827, 55.8483029 ], [ 12.9479835, 55.9268026 ] ] ] } },
{ "type": "Feature", "properties": { "kod": "1283", "namn": "Helsingborg" }, "geometry": { "type": "Polygon", "coordinates": [ [ [ 12.7765372, 55.9614114 ], [ 12.9479835, 55.9268026 ], [ 12.9846132, 55.9813902 ], [ 12.882785, 56.1093058 ], [ 12.8414427, 56.1355994 ], [ 12.7904342, 56.2172119 ], [ 12.7682574, 56.2198943 ], [ 12.5858337, 56.1389778 ], [ 12.7765372, 55.9614114 ] ] ] } },
{ "type": "Feature", "properties": { "kod": "1284", "namn": "Höganäs" }, "geometry": { "type": "Polygon", "coordinates": [ [ [ 12.7682574, 56.2198943 ], [ 12.5050116, 56.3011178 ], [ 12.5858337, 56.1389778 ], [ 12.7682574, 56.2198943 ] ] ] } },
{ "type": "Feature", "properties": { "kod": "1285", "namn": "Eslöv" }, "geometry": { "type": "Polygon", "coordinates": [ [ [ 13.5554656, 55.8277082 ], [ 13.3693312, 56.0117162 ], [ 13.3408098, 56.0140775 ], [ 13.1362239, 55.8388991 ], [ 13.213664, 55.7919399 ], [ 13.5611103, 55.6981967 ], [ 13.6102929, 55.7436126 ], [ 13.5554656, 55.8277082 ] ] ] } },
{ "type": "Feature", "properties": { "kod": "1286", "namn": "Ystad" }, "geometry": { "type": "Polygon", "coordinates": [ [ [ 13.6490007, 55.4211372 ], [ 14.2096867, 55.405028 ], [ 14.0979451, 55.4888957 ], [ 13.8587051, 55.5732713 ], [ 13.6488223, 55.5282274 ], [ 13.6490007, 55.4211372 ] ] ] } },
{ "type": "Feature", "properties": { "kod": "1287", "namn": "Trelleborg" }, "geometry": { "type": "Polygon", "coordinates": [ [ [ 13.4849071, 55.3821274 ], [ 13.4503502, 55.5277563 ], [ 13.1645467, 55.4830927 ], [ 13.0109607, 55.3915976 ], [ 13.4849071, 55.3821274 ] ] ] } },
{ "type": "Feature", "properties": { "kod": "1290", "namn": "Kristianstad" }, "geometry": { "type": "Polygon", "coordinates": [ [ [ 14.1989043, 55.7588691 ], [ 14.4681147, 56.0300167 ], [ 14.4408186, 56.2301341 ], [ 14.4109252, 56.3066584 ], [ 14.0059465, 56.1537337 ], [ 13.7429331, 55.9481818 ], [ 13.957156, 55.7819568 ], [ 14.1042146, 55.7591644 ], [ 14.1989043, 55.7588691 ] ] ] } },
{ "type": "Feature", "properties": { "kod": "1291", "namn": "Simrishamn" }, "geometry": { "type": "Polygon", "coordinates": [ [ [ 14.2096867, 55.405028 ], [ 14.3633615, 55.5425668 ], [ 14.1989043, 55.7588691 ], [ 14.1042146, 55.7591644 ], [ 14.0979451, 55.4888957 ], [ 14.2096867, 55.405028 ] ] ] } },
{ "type": "Feature", "properties": { "kod": "1292", "namn": "Ängelholm" }, "geometry": { "type": "Polygon", "coordinates": [ [ [ 13.0101099, 56.1912016 ], [ 13.1187958, 56.2299131 ], [ 13.20213, 56.3285231 ], [ 12.9469211, 56.3674007 ], [ 12.7693235, 56.3222413 ], [ 12.7904342, 56.2172119 ], [ 12.8414427, 56.1355994 ], [ 13.0101099, 56.1912016 ] ] ] } },
{ "type": "Feature", "properties": { "kod": "1293", "namn": "Hässleholm" }, "geometry": { "type": "Polygon", "coordinates": [ [ [ 13.9882271, 56.323058 ], [ 13.7050794, 56.4278887 ], [ 13.5770109, 56.4093193 ], [ 13.4191244, 56.2679641 ], [ 13.4351612, 56.1089873 ], [ 13.5097556, 56.0840129 ], [ 13.6253728, 55.960951 ], [ 13.7429331, 55.9481818 ], [ 14.0059465, 56.1537337 ], [ 13.9882271, 56.323058 ] ] ] } },
{ "type": "Feature", "properties": { "kod": "1315", "namn": "Hylte" }, "geometry": { "type": "Polygon", "coordinates": [ [ [ 13.6849819, 56.9863608 ], [ 13.4596853, 57.1094592 ], [ 13.0901825, 57.0956375 ], [ 12.9283933, 56.9483795 ], [ 13.2962837, 56.8472907 ], [ 13.6849819, 56.9863608 ] ] ] } },
{ "type": "Feature", "properties": { "kod": "1380", "namn": "Halmstad" }, "geometry": { "type": "Polygon", "coordinates": [ [ [ 13.2962837, 56.8472907 ], [ 12.9283933, 56.9483795 ], [ 12.6223856, 56.7812418 ], [ 12.9543833, 56.5497069 ], [ 13.32624, 56.6933642 ], [ 13.2962837, 56.8472907 ] ] ] } },
{ "type": "Feature", "properties": { "kod": "1381", "namn": "Laholm" }, "geometry": { "type": "Polygon", "coordinates": [ [ [ 13.4020806, 56.613723 ], [ 13.32624, 56.6933642 ], [ 12.9543833, 56.5497069 ], [ 12.9037868, 56.4442354 ], [ 12.9469211, 56.3674007 ], [ 13.20213, 56.3285231 ], [ 13.4572243, 56.4309574 ], [ 13.4020806, 56.613723 ] ] ] } },
{ "type": "Feature", "properties": { "kod": "1382", "namn": "Falkenberg" }, "geometry": { "type": "Polygon", "coordinates": [ [ [ 12.7986702, 57.2890797 ], [ 12.3694687, 56.993557 ], [ 12.6223856, 56.7812418 ], [ 12.9283933, 56.9483795 ], [ 13.0901825, 57.0956375 ], [ 13.1333143, 57.1491384 ], [ 12.7986702, 57.2890797 ] ] ] } },
{ "type": "Feature", "properties": { "kod": "1383", "namn": "Varberg" }, "geometry": { "type": "Polygon", "coordinates": [ [ [ 12.3694687, 56.993557 ], [ 12.7986702, 57.2890797 ], [ 12.395718, 57.3419602 ], [ 12.1747131, 57.3038085 ], [ 12.3694687, 56.993557 ] ] ] } },
{ "type": "Feature", "properties": { "kod": "1384", "namn": "Kungsbacka" }, "geometry": { "type": "Polygon", "coordinates": [ [ [ 11.9473534, 57.5611054 ], [ 12.1747131, 57.3038085 ], [ 12.395718, 57.3419602 ], [ 12.2840434, 57.6041825 ], [ 12.0132658, 57.5628001 ], [ 11.9473534, 57.5611054 ] ] ] } },
{ "type": "Feature", "properties": { "kod": "1401", "namn": "Härryda" }, "geometry": { "type": "Polygon", "coordinates": [ [ [ 12.4382662, 57.7284309 ], [ 12.2145851, 57.723928 ], [ 12.0937346, 57.6800224 ], [ 12.0696017, 57.6750509 ], [ 12.2840434, 57.6041825 ], [ 12.5666755, 57.6180083 ], [ 12.4382662, 57.7284309 ] ] ] } },
{ "type": "Feature", "properties": { "kod": "1402", "namn": "Partille" }, "geometry": { "type": "Polygon", "coordinates": [ [ [ 12.1832136, 57.7703468 ], [ 12.0937346, 57.6800224 ], [ 12.2145851, 57.723928 ], [ 12.1832136, 57.7703468 ] ] ] } },
{ "type": "Feature", "properties": { "kod": "1407", "namn": "Öckerö" }, "geometry": { "type": "Polygon", "coordinates": [ [ [ 11.6869254, 57.7539167 ], [ 11.6500172, 57.7278903 ], [ 11.6840109, 57.6772908 ], [ 11.7207574, 57.7417112 ], [ 11.6869254, 57.7539167 ] ] ] } },
{ "type": "Feature", "properties": { "kod": "1415", "namn": "Stenungsund" }, "geometry": { "type": "Polygon", "coordinates": [ [ [ 11.781676, 57.9711849 ], [ 12.0516071, 58.0343569 ], [ 11.9980654, 58.1399164 ], [ 11.8836608, 58.1624164 ], [ 11.781676, 57.9711849 ] ] ] } },
{ "type": "Feature", "properties": { "kod": "1419", "namn": "Tjörn" }, "geometry": { "type": "Polygon", "coordinates": [ [ [ 11.7005943, 57.9775583 ], [ 11.6723861, 58.0885066 ], [ 11.5294959, 58.031966 ], [ 11.7005943, 57.9775583 ] ] ] } },
{ "type": "Feature", "properties": { "kod": "1421", "namn": "Orust" }, "geometry": { "type": "MultiPolygon", "coordinates": [ [ [ [ 11.8451967, 58.1199271 ], [ 11.8006655, 58.2578548 ], [ 11.4083324, 58.157671 ], [ 11.5754959, 58.0751351 ], [ 11.8451967, 58.1199271 ] ] ], [ [ [ 11.550871, 58.247598 ], [ 11.4821397, 58.2009312 ], [ 11.603482, 58.2535228 ], [ 11.550871, 58.247598 ] ] ] ] } },
{ "type": "Feature", "properties": { "kod": "1427", "namn": "Sotenäs" }, "geometry": { "type": "Polygon", "coordinates": [ [ [ 11.3270044, 58.4676798 ], [ 11.4138105, 58.3738775 ], [ 11.4849879, 58.4642476 ], [ 11.445681, 58.4953758 ], [ 11.3270044, 58.4676798 ] ] ] } },
{ "type": "Feature", "properties": { "kod": "1430", "namn": "Munkedal" }, "geometry": { "type": "Polygon", "coordinates": [ [ [ 11.9206906, 58.4492653 ], [ 11.8293817, 58.7592608 ], [ 11.7047567, 58.8230558 ], [ 11.445681, 58.4953758 ], [ 11.4849879, 58.4642476 ], [ 11.6190382, 58.3953734 ], [ 11.9206906, 58.4492653 ] ] ] } },
{ "type": "Feature", "properties": { "kod": "1435", "namn": "Tanum" }, "geometry": { "type": "Polygon", "coordinates": [ [ [ 11.1795021, 58.834748 ], [ 11.3270044, 58.4676798 ], [ 11.445681, 58.4953758 ], [ 11.7047567, 58.8230558 ], [ 11.6499441, 58.9187674 ], [ 11.4521324, 58.8984281 ], [ 11.1795021, 58.834748 ] ] ] } },
{ "type": "Feature", "properties": { "kod": "1438", "namn": "Dals-Ed" }, "geometry": { "type": "Polygon", "coordinates": [ [ [ 11.8203225, 59.2355287 ], [ 11.6499441, 58.9187674 ], [ 11.7047567, 58.8230558 ], [ 11.8293817, 58.7592608 ], [ 11.9690263, 58.8019445 ], [ 12.1161716, 58.966021 ], [ 11.8203225, 59.2355287 ] ] ] } },
{ "type": "Feature", "properties": { "kod": "1439", "namn": "Färgelanda" }, "geometry": { "type": "Polygon", "coordinates": [ [ [ 11.8293817, 58.7592608 ], [ 11.9206906, 58.4492653 ], [ 12.0718511, 58.4425585 ], [ 12.1637776, 58.6394294 ], [ 12.1813213, 58.7600555 ], [ 11.9690263, 58.8019445 ], [ 11.8293817, 58.7592608 ] ] ] } },
{ "type": "Feature", "properties": { "kod": "1440", "namn": "Ale" }, "geometry": { "type": "Polygon", "coordinates": [ [ [ 12.151196, 58.0191166 ], [ 12.0244979, 57.8502889 ], [ 12.1597742, 57.8597187 ], [ 12.4032173, 58.001586 ], [ 12.4248227, 58.0960586 ], [ 12.3609493, 58.1218764 ], [ 12.151196, 58.0191166 ] ] ] } },
{ "type": "Feature", "properties": { "kod": "1441", "namn": "Lerum" }, "geometry": { "type": "Polygon", "coordinates": [ [ [ 12.2145851, 57.723928 ], [ 12.4382662, 57.7284309 ], [ 12.4802471, 57.7696524 ], [ 12.4032173, 58.001586 ], [ 12.1597742, 57.8597187 ], [ 12.1832136, 57.7703468 ], [ 12.2145851, 57.723928 ] ] ] } },
{ "type": "Feature", "properties": { "kod": "1442", "namn": "Vårgårda" }, "geometry": { "type": "Polygon", "coordinates": [ [ [ 12.6683306, 57.8535197 ], [ 12.8055189, 57.8605166 ], [ 12.9208277, 57.9281897 ], [ 12.9102479, 58.1111476 ], [ 12.7072546, 58.0898907 ], [ 12.6683306, 57.8535197 ] ] ] } },
{ "type": "Feature", "properties": { "kod": "1443", "namn": "Bollebygd" }, "geometry": { "type": "Polygon", "coordinates": [ [ [ 12.6683306, 57.8535197 ], [ 12.4802471, 57.7696524 ], [ 12.4382662, 57.7284309 ], [ 12.5666755, 57.6180083 ], [ 12.6509483, 57.6226498 ], [ 12.7640996, 57.8574234 ], [ 12.6683306, 57.8535197 ] ] ] } },
{ "type": "Feature", "properties": { "kod": "1444", "namn": "Grästorp" }, "geometry": { "type": "Polygon", "coordinates": [ [ [ 12.5281598, 58.2271273 ], [ 12.8164293, 58.2689852 ], [ 12.8393012, 58.3804095 ], [ 12.6339521, 58.4021183 ], [ 12.4946086, 58.2979138 ], [ 12.5281598, 58.2271273 ] ] ] } },
{ "type": "Feature", "properties": { "kod": "1445", "namn": "Essunga" }, "geometry": { "type": "Polygon", "coordinates": [ [ [ 12.5264762, 58.1929961 ], [ 12.7072546, 58.0898907 ], [ 12.9102479, 58.1111476 ], [ 12.9355031, 58.1164269 ], [ 12.8164293, 58.2689852 ], [ 12.5281598, 58.2271273 ], [ 12.5264762, 58.1929961 ] ] ] } },
{ "type": "Feature", "properties": { "kod": "1446", "namn": "Karlsborg" }, "geometry": { "type": "Polygon", "coordinates": [ [ [ 14.4024462, 58.7991597 ], [ 14.3261692, 58.5655571 ], [ 14.3005774, 58.4043534 ], [ 14.3976729, 58.4044086 ], [ 14.721473, 58.7017848 ], [ 14.684288, 58.7459527 ], [ 14.4024462, 58.7991597 ] ] ] } },
{ "type": "Feature", "properties": { "kod": "1447", "namn": "Gullspång" }, "geometry": { "type": "Polygon", "coordinates": [ [ [ 14.0047893, 58.8982393 ], [ 14.1327778, 58.8009234 ], [ 14.3267696, 58.8341468 ], [ 14.2679613, 58.999743 ], [ 14.1168557, 59.0410009 ], [ 14.0047893, 58.8982393 ] ] ] } },
{ "type": "Feature", "properties": { "kod": "1452", "namn": "Tranemo" }, "geometry": { "type": "Polygon", "coordinates": [ [ [ 13.2930098, 57.6820467 ], [ 13.2158158, 57.644988 ], [ 13.2935112, 57.3034861 ], [ 13.6820859, 57.5612415 ], [ 13.7074516, 57.7073909 ], [ 13.2930098, 57.6820467 ] ] ] } },
{ "type": "Feature", "properties": { "kod": "1460", "namn": "Bengtsfors" }, "geometry": { "type": "Polygon", "coordinates": [ [ [ 11.8203225, 59.2355287 ], [ 12.1161716, 58.966021 ], [ 11.9690263, 58.8019445 ], [ 12.1813213, 58.7600555 ], [ 12.4351268, 58.8514145 ], [ 12.4644288, 59.1448909 ], [ 12.2310419, 59.2735673 ], [ 11.8203225, 59.2355287 ] ] ] } },
{ "type": "Feature", "properties": { "kod": "1461", "namn": "Mellerud" }, "geometry": { "type": "Polygon", "coordinates": [ [ [ 12.5259747, 58.5380879 ], [ 12.5585538, 58.8094282 ], [ 12.4351268, 58.8514145 ], [ 12.1813213, 58.7600555 ], [ 12.1637776, 58.6394294 ], [ 12.5259747, 58.5380879 ] ] ] } },
{ "type": "Feature", "properties": { "kod": "1462", "namn": "Lilla Edet" }, "geometry": { "type": "Polygon", "coordinates": [ [ [ 12.151196, 58.0191166 ], [ 12.3609493, 58.1218764 ], [ 12.1427231, 58.2977278 ], [ 11.9980654, 58.1399164 ], [ 12.0516071, 58.0343569 ], [ 12.151196, 58.0191166 ] ] ] } },
{ "type": "Feature", "properties": { "kod": "1463", "namn": "Mark" }, "geometry": { "type": "Polygon", "coordinates": [ [ [ 12.395718, 57.3419602 ], [ 12.7986702, 57.2890797 ], [ 12.9647905, 57.5743773 ], [ 12.6509483, 57.6226498 ], [ 12.5666755, 57.6180083 ], [ 12.2840434, 57.6041825 ], [ 12.395718, 57.3419602 ] ] ] } },
{ "type": "Feature", "properties": { "kod": "1465", "namn": "Svenljunga" }, "geometry": { "type": "Polygon", "coordinates": [ [ [ 13.2935112, 57.3034861 ], [ 13.2158158, 57.644988 ], [ 12.9647905, 57.5743773 ], [ 12.7986702, 57.2890797 ], [ 13.1333143, 57.1491384 ], [ 13.2935112, 57.3034861 ] ] ] } },
{ "type": "Feature", "properties": { "kod": "1466", "namn": "Herrljunga" }, "geometry": { "type": "Polygon", "coordinates": [ [ [ 13.3670443, 57.9829897 ], [ 13.1925036, 58.1307289 ], [ 12.9355031, 58.1164269 ], [ 12.9102479, 58.1111476 ], [ 12.9208277, 57.9281897 ], [ 13.1184157, 57.88862 ], [ 13.3670443, 57.9829897 ] ] ] } },
{ "type": "Feature", "properties": { "kod": "1470", "namn": "Vara" }, "geometry": { "type": "Polygon", "coordinates": [ [ [ 13.2060928, 58.3512506 ], [ 12.8393012, 58.3804095 ], [ 12.8164293, 58.2689852 ], [ 12.9355031, 58.1164269 ], [ 13.1925036, 58.1307289 ], [ 13.4010518, 58.27479 ], [ 13.2060928, 58.3512506 ] ] ] } },
{ "type": "Feature", "properties": { "kod": "1471", "namn": "Götene" }, "geometry": { "type": "Polygon", "coordinates": [ [ [ 13.6934036, 58.5599497 ], [ 13.6128565, 58.6949139 ], [ 13.255238, 58.4982493 ], [ 13.328864, 58.4363825 ], [ 13.6185467, 58.4825125 ], [ 13.6934036, 58.5599497 ] ] ] } },
{ "type": "Feature", "properties": { "kod": "1472", "namn": "Tibro" }, "geometry": { "type": "Polygon", "coordinates": [ [ [ 14.1340077, 58.5181921 ], [ 14.140271, 58.3578997 ], [ 14.3005774, 58.4043534 ], [ 14.3261692, 58.5655571 ], [ 14.1340077, 58.5181921 ] ] ] } },
{ "type": "Feature", "properties": { "kod": "1473", "namn": "Töreboda" }, "geometry": { "type": "Polygon", "coordinates": [ [ [ 13.9354274, 58.593528 ], [ 14.1340077, 58.5181921 ], [ 14.3261692, 58.5655571 ], [ 14.4024462, 58.7991597 ], [ 14.3267696, 58.8341468 ], [ 14.1327778, 58.8009234 ], [ 13.9354274, 58.593528 ] ] ] } },
{ "type": "Feature", "properties": { "kod": "1480", "namn": "Göteborg" }, "geometry": { "type": "Polygon", "coordinates": [ [ [ 12.0244979, 57.8502889 ], [ 11.8282455, 57.791958 ], [ 11.9473534, 57.5611054 ], [ 12.0132658, 57.5628001 ], [ 12.0696017, 57.6750509 ], [ 12.0937346, 57.6800224 ], [ 12.1832136, 57.7703468 ], [ 12.1597742, 57.8597187 ], [ 12.0244979, 57.8502889 ] ] ] } },
{ "type": "Feature", "properties": { "kod": "1481", "namn": "Mölndal" }, "geometry": { "type": "Polygon", "coordinates": [ [ [ 12.0696017, 57.6750509 ], [ 12.0132658, 57.5628001 ], [ 12.2840434, 57.6041825 ], [ 12.0696017, 57.6750509 ] ] ] } },
{ "type": "Feature", "properties": { "kod": "1482", "namn": "Kungälv" }, "geometry": { "type": "Polygon", "coordinates": [ [ [ 11.8282455, 57.791958 ], [ 12.0244979, 57.8502889 ], [ 12.151196, 58.0191166 ], [ 12.0516071, 58.0343569 ], [ 11.781676, 57.9711849 ], [ 11.8282455, 57.791958 ] ] ] } },
{ "type": "Feature", "properties": { "kod": "1484", "namn": "Lysekil" }, "geometry": { "type": "MultiPolygon", "coordinates": [ [ [ [ 11.4138105, 58.3738775 ], [ 11.5597309, 58.3115181 ], [ 11.6190382, 58.3953734 ], [ 11.4849879, 58.4642476 ], [ 11.4138105, 58.3738775 ] ] ], [ [ [ 11.550871, 58.247598 ], [ 11.5635439, 58.2847227 ], [ 11.4821397, 58.2009312 ], [ 11.550871, 58.247598 ] ] ] ] } },
{ "type": "Feature", "properties": { "kod": "1485", "namn": "Uddevalla" }, "geometry": { "type": "Polygon", "coordinates": [ [ [ 11.603482, 58.2535228 ], [ 11.7441678, 58.3068061 ], [ 11.9190501, 58.2042592 ], [ 11.8836608, 58.1624164 ], [ 11.9980654, 58.1399164 ], [ 12.1427231, 58.2977278 ], [ 12.0718511, 58.4425585 ], [ 11.9206906, 58.4492653 ], [ 11.6190382, 58.3953734 ], [ 11.5597309, 58.3115181 ], [ 11.5635439, 58.2847227 ], [ 11.550871, 58.247598 ], [ 11.603482, 58.2535228 ] ] ] } },
{ "type": "Feature", "properties": { "kod": "1486", "namn": "Strömstad" }, "geometry": { "type": "Polygon", "coordinates": [ [ [ 11.1795021, 58.834748 ], [ 11.4521324, 58.8984281 ], [ 11.3593959, 59.111315 ], [ 11.1314456, 59.0118375 ], [ 11.1795021, 58.834748 ] ] ] } },
{ "type": "Feature", "properties": { "kod": "1487", "namn": "Vänersborg" }, "geometry": { "type": "Polygon", "coordinates": [ [ [ 12.1427231, 58.2977278 ], [ 12.4946086, 58.2979138 ], [ 12.6339521, 58.4021183 ], [ 12.5259747, 58.5380879 ], [ 12.1637776, 58.6394294 ], [ 12.0718511, 58.4425585 ], [ 12.1427231, 58.2977278 ] ] ] } },
{ "type": "Feature", "properties": { "kod": "1488", "namn": "Trollhättan" }, "geometry": { "type": "Polygon", "coordinates": [ [ [ 12.4946086, 58.2979138 ], [ 12.1427231, 58.2977278 ], [ 12.3609493, 58.1218764 ], [ 12.4248227, 58.0960586 ], [ 12.5264762, 58.1929961 ], [ 12.5281598, 58.2271273 ], [ 12.4946086, 58.2979138 ] ] ] } },
{ "type": "Feature", "properties": { "kod": "1489", "namn": "Alingsås" }, "geometry": { "type": "Polygon", "coordinates": [ [ [ 12.4032173, 58.001586 ], [ 12.4802471, 57.7696524 ], [ 12.6683306, 57.8535197 ], [ 12.7072546, 58.0898907 ], [ 12.5264762, 58.1929961 ], [ 12.4248227, 58.0960586 ], [ 12.4032173, 58.001586 ] ] ] } },
{ "type": "Feature", "properties": { "kod": "1490", "namn": "Borås" }, "geometry": { "type": "Polygon", "coordinates": [ [ [ 13.2930098, 57.6820467 ], [ 13.1184157, 57.88862 ], [ 12.9208277, 57.9281897 ], [ 12.8055189, 57.8605166 ], [ 12.7640996, 57.8574234 ], [ 12.6509483, 57.6226498 ], [ 12.9647905, 57.5743773 ], [ 13.2158158, 57.644988 ], [ 13.2930098, 57.6820467 ] ] ] } },
{ "type": "Feature", "properties": { "kod": "1491", "namn": "Ulricehamn" }, "geometry": { "type": "Polygon", "coordinates": [ [ [ 13.2930098, 57.6820467 ], [ 13.7074516, 57.7073909 ], [ 13.7414492, 57.8435405 ], [ 13.7088746, 57.9375685 ], [ 13.3670443, 57.9829897 ], [ 13.1184157, 57.88862 ], [ 13.2930098, 57.6820467 ] ] ] } },
{ "type": "Feature", "properties": { "kod": "1492", "namn": "Åmål" }, "geometry": { "type": "Polygon", "coordinates": [ [ [ 12.7725896, 59.070416 ], [ 12.4644288, 59.1448909 ], [ 12.4351268, 58.8514145 ], [ 12.5585538, 58.8094282 ], [ 12.7725896, 59.070416 ] ] ] } },
{ "type": "Feature", "properties": { "kod": "1493", "namn": "Mariestad" }, "geometry": { "type": "Polygon", "coordinates": [ [ [ 13.6934036, 58.5599497 ], [ 13.9354274, 58.593528 ], [ 14.1327778, 58.8009234 ], [ 14.0047893, 58.8982393 ], [ 13.6128565, 58.6949139 ], [ 13.6934036, 58.5599497 ] ] ] } },
{ "type": "Feature", "properties": { "kod": "1494", "namn": "Lidköping" }, "geometry": { "type": "Polygon", "coordinates": [ [ [ 12.8393012, 58.3804095 ], [ 13.2060928, 58.3512506 ], [ 13.328864, 58.4363825 ], [ 13.255238, 58.4982493 ], [ 12.6339521, 58.4021183 ], [ 12.8393012, 58.3804095 ] ] ] } },
{ "type": "Feature", "properties": { "kod": "1495", "namn": "Skara" }, "geometry": { "type": "Polygon", "coordinates": [ [ [ 13.4010518, 58.27479 ], [ 13.7730477, 58.4234607 ], [ 13.6185467, 58.4825125 ], [ 13.328864, 58.4363825 ], [ 13.2060928, 58.3512506 ], [ 13.4010518, 58.27479 ] ] ] } },
{ "type": "Feature", "properties": { "kod": "1496", "namn": "Skövde" }, "geometry": { "type": "Polygon", "coordinates": [ [ [ 14.1340077, 58.5181921 ], [ 13.9354274, 58.593528 ], [ 13.6934036, 58.5599497 ], [ 13.6185467, 58.4825125 ], [ 13.7730477, 58.4234607 ], [ 13.8447965, 58.2513055 ], [ 13.9671788, 58.2751828 ], [ 14.140271, 58.3578997 ], [ 14.1340077, 58.5181921 ] ] ] } },
{ "type": "Feature", "properties": { "kod": "1497", "namn": "Hjo" }, "geometry": { "type": "Polygon", "coordinates": [ [ [ 13.9671788, 58.2751828 ], [ 14.1132418, 58.1516647 ], [ 14.2130299, 58.1456872 ], [ 14.3976729, 58.4044086 ], [ 14.3005774, 58.4043534 ], [ 14.140271, 58.3578997 ], [ 13.9671788, 58.2751828 ] ] ] } },
{ "type": "Feature", "properties": { "kod": "1498", "namn": "Tidaholm" }, "geometry": { "type": "Polygon", "coordinates": [ [ [ 14.1132418, 58.1516647 ], [ 13.9671788, 58.2751828 ], [ 13.8447965, 58.2513055 ], [ 13.7763428, 58.0499834 ], [ 13.9601744, 58.0094092 ], [ 14.1132418, 58.1516647 ] ] ] } },
{ "type": "Feature", "properties": { "kod": "1499", "namn": "Falköping" }, "geometry": { "type": "Polygon", "coordinates": [ [ [ 13.1925036, 58.1307289 ], [ 13.3670443, 57.9829897 ], [ 13.7088746, 57.9375685 ], [ 13.7763428, 58.0499834 ], [ 13.8447965, 58.2513055 ], [ 13.7730477, 58.4234607 ], [ 13.4010518, 58.27479 ], [ 13.1925036, 58.1307289 ] ] ] } },
{ "type": "Feature", "properties": { "kod": "1715", "namn": "Kil" }, "geometry": { "type": "Polygon", "coordinates": [ [ [ 13.1543708, 59.4809647 ], [ 13.3814735, 59.4991019 ], [ 13.3507949, 59.6723228 ], [ 13.0806652, 59.6617285 ], [ 12.9417374, 59.558098 ], [ 13.1543708, 59.4809647 ] ] ] } },
{ "type": "Feature", "properties": { "kod": "1730", "namn": "Eda" }, "geometry": { "type": "Polygon", "coordinates": [ [ [ 12.2945977, 59.594647 ], [ 12.4837384, 59.8203742 ], [ 12.4476373, 60.038984 ], [ 11.9420603, 59.7254003 ], [ 12.2945977, 59.594647 ] ] ] } },
{ "type": "Feature", "properties": { "kod": "1737", "namn": "Torsby" }, "geometry": { "type": "Polygon", "coordinates": [ [ [ 12.5873187, 60.0854648 ], [ 13.2405498, 60.1251855 ], [ 13.5679354, 60.4214319 ], [ 13.1754876, 60.7660944 ], [ 12.676351, 61.0580769 ], [ 12.2328255, 61.0190498 ], [ 12.6029828, 60.5228645 ], [ 12.5061698, 60.1331922 ], [ 12.5873187, 60.0854648 ] ] ] } },
{ "type": "Feature", "properties": { "kod": "1760", "namn": "Storfors" }, "geometry": { "type": "Polygon", "coordinates": [ [ [ 14.0274579, 59.4901931 ], [ 14.3187771, 59.3229784 ], [ 14.463459, 59.5324101 ], [ 14.4601048, 59.5915997 ], [ 14.031012, 59.5622659 ], [ 14.0274579, 59.4901931 ] ] ] } },
{ "type": "Feature", "properties": { "kod": "1761", "namn": "Hammarö" }, "geometry": { "type": "Polygon", "coordinates": [ [ [ 13.437641, 59.3398464 ], [ 13.5050363, 59.2703101 ], [ 13.6050676, 59.355769 ], [ 13.437641, 59.3398464 ] ] ] } },
{ "type": "Feature", "properties": { "kod": "1762", "namn": "Munkfors" }, "geometry": { "type": "Polygon", "coordinates": [ [ [ 13.3777315, 59.882335 ], [ 13.3822681, 59.7636871 ], [ 13.6177092, 59.8166605 ], [ 13.3777315, 59.882335 ] ] ] } },
{ "type": "Feature", "properties": { "kod": "1763", "namn": "Forshaga" }, "geometry": { "type": "Polygon", "coordinates": [ [ [ 13.3814735, 59.4991019 ], [ 13.6290938, 59.5683316 ], [ 13.6840407, 59.7789952 ], [ 13.6177092, 59.8166605 ], [ 13.3822681, 59.7636871 ], [ 13.3507949, 59.6723228 ], [ 13.3814735, 59.4991019 ] ] ] } },
{ "type": "Feature", "properties": { "kod": "1764", "namn": "Grums" }, "geometry": { "type": "Polygon", "coordinates": [ [ [ 12.9417374, 59.558098 ], [ 12.8549401, 59.4422564 ], [ 13.1004149, 59.250376 ], [ 13.1490599, 59.3531188 ], [ 13.1543708, 59.4809647 ], [ 12.9417374, 59.558098 ] ] ] } },
{ "type": "Feature", "properties": { "kod": "1765", "namn": "Årjäng" }, "geometry": { "type": "Polygon", "coordinates": [ [ [ 11.8203225, 59.2355287 ], [ 12.2310419, 59.2735673 ], [ 12.4644288, 59.1448909 ], [ 12.4991837, 59.4186011 ], [ 12.2945977, 59.594647 ], [ 11.9420603, 59.7254003 ], [ 11.6962539, 59.5882348 ], [ 11.8203225, 59.2355287 ] ] ] } },
{ "type": "Feature", "properties": { "kod": "1766", "namn": "Sunne" }, "geometry": { "type": "Polygon", "coordinates": [ [ [ 13.3822681, 59.7636871 ], [ 13.3777315, 59.882335 ], [ 13.2405498, 60.1251855 ], [ 12.5873187, 60.0854648 ], [ 13.0806652, 59.6617285 ], [ 13.3507949, 59.6723228 ], [ 13.3822681, 59.7636871 ] ] ] } },
{ "type": "Feature", "properties": { "kod": "1780", "namn": "Karlstad" }, "geometry": { "type": "Polygon", "coordinates": [ [ [ 13.6840407, 59.7789952 ], [ 13.6290938, 59.5683316 ], [ 13.3814735, 59.4991019 ], [ 13.1543708, 59.4809647 ], [ 13.1490599, 59.3531188 ], [ 13.437641, 59.3398464 ], [ 13.6050676, 59.355769 ], [ 13.887014, 59.3381676 ], [ 14.0274579, 59.4901931 ], [ 14.031012, 59.5622659 ], [ 13.7684936, 59.7844362 ], [ 13.6840407, 59.7789952 ] ] ] } },
{ "type": "Feature", "properties": { "kod": "1781", "namn": "Kristinehamn" }, "geometry": { "type": "Polygon", "coordinates": [ [ [ 13.887014, 59.3381676 ], [ 14.1168557, 59.0410009 ], [ 14.2679613, 58.999743 ], [ 14.3192639, 59.3126503 ], [ 14.3187771, 59.3229784 ], [ 14.0274579, 59.4901931 ], [ 13.887014, 59.3381676 ] ] ] } },
{ "type": "Feature", "properties": { "kod": "1782", "namn": "Filipstad" }, "geometry": { "type": "Polygon", "coordinates": [ [ [ 13.9678868, 60.1886388 ], [ 13.9851739, 59.9664079 ], [ 13.7684936, 59.7844362 ], [ 14.031012, 59.5622659 ], [ 14.4601048, 59.5915997 ], [ 14.4384779, 60.0257077 ], [ 14.137801, 60.2443214 ], [ 13.9494762, 60.2667842 ], [ 13.9678868, 60.1886388 ] ] ] } },
{ "type": "Feature", "properties": { "kod": "1783", "namn": "Hagfors" }, "geometry": { "type": "Polygon", "coordinates": [ [ [ 13.7684936, 59.7844362 ], [ 13.9851739, 59.9664079 ], [ 13.9678868, 60.1886388 ], [ 13.5679354, 60.4214319 ], [ 13.2405498, 60.1251855 ], [ 13.3777315, 59.882335 ], [ 13.6177092, 59.8166605 ], [ 13.6840407, 59.7789952 ], [ 13.7684936, 59.7844362 ] ] ] } },
{ "type": "Feature", "properties": { "kod": "1784", "namn": "Arvika" }, "geometry": { "type": "Polygon", "coordinates": [ [ [ 12.5873187, 60.0854648 ], [ 12.5061698, 60.1331922 ], [ 12.4476373, 60.038984 ], [ 12.4837384, 59.8203742 ], [ 12.2945977, 59.594647 ], [ 12.4991837, 59.4186011 ], [ 12.8549401, 59.4422564 ], [ 12.9417374, 59.558098 ], [ 13.0806652, 59.6617285 ], [ 12.5873187, 60.0854648 ] ] ] } },
{ "type": "Feature", "properties": { "kod": "1785", "namn": "Säffle" }, "geometry": { "type": "Polygon", "coordinates": [ [ [ 12.4644288, 59.1448909 ], [ 12.7725896, 59.070416 ], [ 13.1004149, 59.250376 ], [ 12.8549401, 59.4422564 ], [ 12.4991837, 59.4186011 ], [ 12.4644288, 59.1448909 ] ] ] } },
{ "type": "Feature", "properties": { "kod": "1814", "namn": "Lekeberg" }, "geometry": { "type": "Polygon", "coordinates": [ [ [ 14.5754484, 59.1072869 ], [ 14.6999085, 59.0314158 ], [ 14.9349527, 59.0945462 ], [ 15.0474969, 59.1411049 ], [ 15.0208379, 59.2091088 ], [ 14.9286079, 59.2560113 ], [ 14.8634858, 59.3087476 ], [ 14.7925166, 59.3253727 ], [ 14.6063443, 59.2518652 ], [ 14.5754484, 59.1072869 ] ] ] } },
{ "type": "Feature", "properties": { "kod": "1860", "namn": "Laxå" }, "geometry": { "type": "Polygon", "coordinates": [ [ [ 14.684288, 58.7459527 ], [ 14.7062134, 58.980772 ], [ 14.6999085, 59.0314158 ], [ 14.5754484, 59.1072869 ], [ 14.2679613, 58.999743 ], [ 14.3267696, 58.8341468 ], [ 14.4024462, 58.7991597 ], [ 14.684288, 58.7459527 ] ] ] } },
{ "type": "Feature", "properties": { "kod": "1861", "namn": "Hallsberg" }, "geometry": { "type": "Polygon", "coordinates": [ [ [ 14.7062134, 58.980772 ], [ 15.0738816, 59.0310577 ], [ 15.3391896, 58.8472329 ], [ 15.4194012, 58.8309181 ], [ 15.5306691, 58.9446143 ], [ 15.3519511, 59.1750062 ], [ 14.9349527, 59.0945462 ], [ 14.6999085, 59.0314158 ], [ 14.7062134, 58.980772 ] ] ] } },
{ "type": "Feature", "properties": { "kod": "1862", "namn": "Degerfors" }, "geometry": { "type": "Polygon", "coordinates": [ [ [ 14.6063443, 59.2518652 ], [ 14.3192639, 59.3126503 ], [ 14.2679613, 58.999743 ], [ 14.5754484, 59.1072869 ], [ 14.6063443, 59.2518652 ] ] ] } },
{ "type": "Feature", "properties": { "kod": "1863", "namn": "Hällefors" }, "geometry": { "type": "Polygon", "coordinates": [ [ [ 14.7079121, 59.4835695 ], [ 14.9425553, 59.7289244 ], [ 14.9084449, 59.7770965 ], [ 14.7454298, 60.0029234 ], [ 14.4384779, 60.0257077 ], [ 14.4601048, 59.5915997 ], [ 14.463459, 59.5324101 ], [ 14.7079121, 59.4835695 ] ] ] } },
{ "type": "Feature", "properties": { "kod": "1864", "namn": "Ljusnarsberg" }, "geometry": { "type": "Polygon", "coordinates": [ [ [ 15.1243811, 60.0250682 ], [ 14.7454298, 60.0029234 ], [ 14.9084449, 59.7770965 ], [ 15.2169038, 59.991209 ], [ 15.1243811, 60.0250682 ] ] ] } },
{ "type": "Feature", "properties": { "kod": "1880", "namn": "Örebro" }, "geometry": { "type": "Polygon", "coordinates": [ [ [ 15.0602007, 59.1837447 ], [ 15.3519511, 59.1750062 ], [ 15.5306691, 58.9446143 ], [ 15.6323376, 59.0031971 ], [ 15.7698102, 59.1500382 ], [ 15.6168838, 59.3228569 ], [ 15.5794461, 59.4288092 ], [ 15.1574192, 59.513779 ], [ 14.7392822, 59.3692902 ], [ 14.7925166, 59.3253727 ], [ 14.8634858, 59.3087476 ], [ 14.9286079, 59.2560113 ], [ 15.0208379, 59.2091088 ], [ 15.0602007, 59.1837447 ] ] ] } },
{ "type": "Feature", "properties": { "kod": "1881", "namn": "Kumla" }, "geometry": { "type": "Polygon", "coordinates": [ [ [ 15.0602007, 59.1837447 ], [ 15.0474969, 59.1411049 ], [ 14.9349527, 59.0945462 ], [ 15.3519511, 59.1750062 ], [ 15.0602007, 59.1837447 ] ] ] } },
{ "type": "Feature", "properties": { "kod": "1882", "namn": "Askersund" }, "geometry": { "type": "Polygon", "coordinates": [ [ [ 14.721473, 58.7017848 ], [ 14.9395751, 58.6990589 ], [ 15.3391896, 58.8472329 ], [ 15.0738816, 59.0310577 ], [ 14.7062134, 58.980772 ], [ 14.684288, 58.7459527 ], [ 14.721473, 58.7017848 ] ] ] } },
{ "type": "Feature", "properties": { "kod": "1883", "namn": "Karlskoga" }, "geometry": { "type": "Polygon", "coordinates": [ [ [ 14.3192639, 59.3126503 ], [ 14.6063443, 59.2518652 ], [ 14.7925166, 59.3253727 ], [ 14.7392822, 59.3692902 ], [ 14.7079121, 59.4835695 ], [ 14.463459, 59.5324101 ], [ 14.3187771, 59.3229784 ], [ 14.3192639, 59.3126503 ] ] ] } },
{ "type": "Feature", "properties": { "kod": "1884", "namn": "Nora" }, "geometry": { "type": "Polygon", "coordinates": [ [ [ 14.7392822, 59.3692902 ], [ 15.1574192, 59.513779 ], [ 14.9425553, 59.7289244 ], [ 14.7079121, 59.4835695 ], [ 14.7392822, 59.3692902 ] ] ] } },
{ "type": "Feature", "properties": { "kod": "1885", "namn": "Lindesberg" }, "geometry": { "type": "Polygon", "coordinates": [ [ [ 15.7093676, 59.5299471 ], [ 15.534763, 59.7083249 ], [ 15.4018026, 59.8611476 ], [ 15.2169038, 59.991209 ], [ 14.9084449, 59.7770965 ], [ 14.9425553, 59.7289244 ], [ 15.1574192, 59.513779 ], [ 15.5794461, 59.4288092 ], [ 15.7093676, 59.5299471 ] ] ] } },
{ "type": "Feature", "properties": { "kod": "1904", "namn": "Skinnskatteberg" }, "geometry": { "type": "Polygon", "coordinates": [ [ [ 15.534763, 59.7083249 ], [ 15.9899953, 59.7192642 ], [ 15.9272366, 59.8564522 ], [ 15.6779862, 59.9451938 ], [ 15.4018026, 59.8611476 ], [ 15.534763, 59.7083249 ] ] ] } },
{ "type": "Feature", "properties": { "kod": "1907", "namn": "Surahammar" }, "geometry": { "type": "Polygon", "coordinates": [ [ [ 15.9899953, 59.7192642 ], [ 16.1197826, 59.6588626 ], [ 16.2635421, 59.6826513 ], [ 16.2788141, 59.7868194 ], [ 16.1093714, 59.9041197 ], [ 15.9272366, 59.8564522 ], [ 15.9899953, 59.7192642 ] ] ] } },
{ "type": "Feature", "properties": { "kod": "1960", "namn": "Kungsör" }, "geometry": { "type": "Polygon", "coordinates": [ [ [ 16.058368, 59.4796036 ], [ 15.8729629, 59.4732471 ], [ 15.9976122, 59.3746007 ], [ 16.2308441, 59.4427065 ], [ 16.058368, 59.4796036 ] ] ] } },
{ "type": "Feature", "properties": { "kod": "1961", "namn": "Hallstahammar" }, "geometry": { "type": "Polygon", "coordinates": [ [ [ 16.2410011, 59.4982555 ], [ 16.2635421, 59.6826513 ], [ 16.1197826, 59.6588626 ], [ 16.2410011, 59.4982555 ] ] ] } },
{ "type": "Feature", "properties": { "kod": "1962", "namn": "Norberg" }, "geometry": { "type": "Polygon", "coordinates": [ [ [ 15.7791333, 60.182182 ], [ 15.7095443, 60.0182291 ], [ 16.0938132, 59.9485485 ], [ 16.1917866, 60.0760961 ], [ 16.0193449, 60.1909388 ], [ 15.7791333, 60.182182 ] ] ] } },
{ "type": "Feature", "properties": { "kod": "1980", "namn": "Västerås" }, "geometry": { "type": "Polygon", "coordinates": [ [ [ 16.7442131, 59.7812878 ], [ 16.2788141, 59.7868194 ], [ 16.2635421, 59.6826513 ], [ 16.2410011, 59.4982555 ], [ 16.9048208, 59.5674026 ], [ 16.7442131, 59.7812878 ] ] ] } },
{ "type": "Feature", "properties": { "kod": "1981", "namn": "Sala" }, "geometry": { "type": "Polygon", "coordinates": [ [ [ 16.7204437, 60.1999074 ], [ 16.1917866, 60.0760961 ], [ 16.0938132, 59.9485485 ], [ 16.1093714, 59.9041197 ], [ 16.2788141, 59.7868194 ], [ 16.7442131, 59.7812878 ], [ 16.8312567, 59.8602169 ], [ 16.7204437, 60.1999074 ] ] ] } },
{ "type": "Feature", "properties": { "kod": "1982", "namn": "Fagersta" }, "geometry": { "type": "Polygon", "coordinates": [ [ [ 16.0938132, 59.9485485 ], [ 15.7095443, 60.0182291 ], [ 15.6779862, 59.9451938 ], [ 15.9272366, 59.8564522 ], [ 16.1093714, 59.9041197 ], [ 16.0938132, 59.9485485 ] ] ] } },
{ "type": "Feature", "properties": { "kod": "1983", "namn": "Köping" }, "geometry": { "type": "Polygon", "coordinates": [ [ [ 15.9899953, 59.7192642 ], [ 15.534763, 59.7083249 ], [ 15.7093676, 59.5299471 ], [ 15.8729629, 59.4732471 ], [ 16.058368, 59.4796036 ], [ 16.2410011, 59.4982555 ], [ 16.1197826, 59.6588626 ], [ 15.9899953, 59.7192642 ] ] ] } },
{ "type": "Feature", "properties": { "kod": "1984", "namn": "Arboga" }, "geometry": { "type": "Polygon", "coordinates": [ [ [ 15.6168838, 59.3228569 ], [ 15.8544147, 59.2996682 ], [ 15.9976122, 59.3746007 ], [ 15.8729629, 59.4732471 ], [ 15.7093676, 59.5299471 ], [ 15.5794461, 59.4288092 ], [ 15.6168838, 59.3228569 ] ] ] } },
{ "type": "Feature", "properties": { "kod": "2021", "namn": "Vansbro" }, "geometry": { "type": "Polygon", "coordinates": [ [ [ 14.137801, 60.2443214 ], [ 14.6352333, 60.2849081 ], [ 14.5453298, 60.5741482 ], [ 14.3693937, 60.6931809 ], [ 14.0194907, 60.6726907 ], [ 13.9494762, 60.2667842 ], [ 14.137801, 60.2443214 ] ] ] } },
{ "type": "Feature", "properties": { "kod": "2023", "namn": "Malung-Sälen" }, "geometry": { "type": "Polygon", "coordinates": [ [ [ 12.8622414, 61.3606797 ], [ 12.676351, 61.0580769 ], [ 13.1754876, 60.7660944 ], [ 13.5679354, 60.4214319 ], [ 13.9678868, 60.1886388 ], [ 13.9494762, 60.2667842 ], [ 14.0194907, 60.6726907 ], [ 13.906162, 60.8707091 ], [ 13.5456984, 61.0399918 ], [ 13.1152842, 61.5255955 ], [ 12.8622414, 61.3606797 ] ] ] } },
{ "type": "Feature", "properties": { "kod": "2026", "namn": "Gagnef" }, "geometry": { "type": "Polygon", "coordinates": [ [ [ 15.3090933, 60.626283 ], [ 14.5453298, 60.5741482 ], [ 14.6352333, 60.2849081 ], [ 15.0894304, 60.4097509 ], [ 15.3090933, 60.626283 ] ] ] } },
{ "type": "Feature", "properties": { "kod": "2029", "namn": "Leksand" }, "geometry": { "type": "Polygon", "coordinates": [ [ [ 14.5453298, 60.5741482 ], [ 15.3090933, 60.626283 ], [ 15.6140086, 60.8792869 ], [ 15.0574304, 60.8454354 ], [ 14.6713436, 60.8289743 ], [ 14.3693937, 60.6931809 ], [ 14.5453298, 60.5741482 ] ] ] } },
{ "type": "Feature", "properties": { "kod": "2031", "namn": "Rättvik" }, "geometry": { "type": "Polygon", "coordinates": [ [ [ 15.0693293, 61.4928187 ], [ 15.0333541, 61.0564212 ], [ 14.9831537, 60.8841487 ], [ 15.0574304, 60.8454354 ], [ 15.6140086, 60.8792869 ], [ 15.7581285, 61.0601782 ], [ 15.2301767, 61.5124224 ], [ 15.0693293, 61.4928187 ] ] ] } },
{ "type": "Feature", "properties": { "kod": "2034", "namn": "Orsa" }, "geometry": { "type": "Polygon", "coordinates": [ [ [ 14.414767, 61.5861928 ], [ 14.3056011, 61.4528934 ], [ 14.5591291, 61.0764457 ], [ 15.0333541, 61.0564212 ], [ 15.0693293, 61.4928187 ], [ 14.5007101, 61.6301926 ], [ 14.414767, 61.5861928 ] ] ] } },
{ "type": "Feature", "properties": { "kod": "2039", "namn": "Älvdalen" }, "geometry": { "type": "Polygon", "coordinates": [ [ [ 13.9831096, 61.6346686 ], [ 13.6130943, 61.6712252 ], [ 12.7956107, 62.2303494 ], [ 12.3021548, 62.2615546 ], [ 12.1608734, 61.725301 ], [ 12.5828261, 61.5740268 ], [ 12.8622414, 61.3606797 ], [ 13.1152842, 61.5255955 ], [ 13.5456984, 61.0399918 ], [ 14.3424899, 61.1116799 ], [ 13.9831096, 61.6346686 ] ] ] } },
{ "type": "Feature", "properties": { "kod": "2061", "namn": "Smedjebacken" }, "geometry": { "type": "Polygon", "coordinates": [ [ [ 15.7095443, 60.0182291 ], [ 15.7791333, 60.182182 ], [ 15.6469658, 60.2203401 ], [ 15.2390813, 60.283105 ], [ 15.1243811, 60.0250682 ], [ 15.2169038, 59.991209 ], [ 15.4018026, 59.8611476 ], [ 15.6779862, 59.9451938 ], [ 15.7095443, 60.0182291 ] ] ] } },
{ "type": "Feature", "properties": { "kod": "2062", "namn": "Mora" }, "geometry": { "type": "Polygon", "coordinates": [ [ [ 15.0333541, 61.0564212 ], [ 14.5591291, 61.0764457 ], [ 14.3056011, 61.4528934 ], [ 14.414767, 61.5861928 ], [ 13.9831096, 61.6346686 ], [ 14.3424899, 61.1116799 ], [ 13.5456984, 61.0399918 ], [ 13.906162, 60.8707091 ], [ 14.0194907, 60.6726907 ], [ 14.3693937, 60.6931809 ], [ 14.6713436, 60.8289743 ], [ 14.9831537, 60.8841487 ], [ 15.0333541, 61.0564212 ] ] ] } },
{ "type": "Feature", "properties": { "kod": "2080", "namn": "Falun" }, "geometry": { "type": "Polygon", "coordinates": [ [ [ 16.2413091, 60.6185706 ], [ 16.40095, 60.7877102 ], [ 16.1425761, 61.000723 ], [ 15.9341244, 61.0122066 ], [ 15.7581285, 61.0601782 ], [ 15.6140086, 60.8792869 ], [ 15.3090933, 60.626283 ], [ 15.6928447, 60.4561207 ], [ 16.1472193, 60.6048772 ], [ 16.2413091, 60.6185706 ] ] ] } },
{ "type": "Feature", "properties": { "kod": "2081", "namn": "Borlänge" }, "geometry": { "type": "Polygon", "coordinates": [ [ [ 15.2006265, 60.3068542 ], [ 15.6928447, 60.4561207 ], [ 15.3090933, 60.626283 ], [ 15.0894304, 60.4097509 ], [ 15.2006265, 60.3068542 ] ] ] } },
{ "type": "Feature", "properties": { "kod": "2082", "namn": "Säter" }, "geometry": { "type": "Polygon", "coordinates": [ [ [ 15.2006265, 60.3068542 ], [ 15.2390813, 60.283105 ], [ 15.6469658, 60.2203401 ], [ 16.1472193, 60.6048772 ], [ 15.6928447, 60.4561207 ], [ 15.2006265, 60.3068542 ] ] ] } },
{ "type": "Feature", "properties": { "kod": "2083", "namn": "Hedemora" }, "geometry": { "type": "Polygon", "coordinates": [ [ [ 16.4031111, 60.3815247 ], [ 16.1472193, 60.6048772 ], [ 15.6469658, 60.2203401 ], [ 15.7791333, 60.182182 ], [ 16.0193449, 60.1909388 ], [ 16.4031111, 60.3815247 ] ] ] } },
{ "type": "Feature", "properties": { "kod": "2084", "namn": "Avesta" }, "geometry": { "type": "Polygon", "coordinates": [ [ [ 16.1917866, 60.0760961 ], [ 16.7204437, 60.1999074 ], [ 16.5206626, 60.3645225 ], [ 16.4031111, 60.3815247 ], [ 16.0193449, 60.1909388 ], [ 16.1917866, 60.0760961 ] ] ] } },
{ "type": "Feature", "properties": { "kod": "2085", "namn": "Ludvika" }, "geometry": { "type": "Polygon", "coordinates": [ [ [ 14.6352333, 60.2849081 ], [ 14.137801, 60.2443214 ], [ 14.4384779, 60.0257077 ], [ 14.7454298, 60.0029234 ], [ 15.1243811, 60.0250682 ], [ 15.2390813, 60.283105 ], [ 15.2006265, 60.3068542 ], [ 15.0894304, 60.4097509 ], [ 14.6352333, 60.2849081 ] ] ] } },
{ "type": "Feature", "properties": { "kod": "2101", "namn": "Ockelbo" }, "geometry": { "type": "Polygon", "coordinates": [ [ [ 16.8587603, 60.7758529 ], [ 16.8999792, 61.0441351 ], [ 16.5584984, 61.0904576 ], [ 16.1425761, 61.000723 ], [ 16.40095, 60.7877102 ], [ 16.8587603, 60.7758529 ] ] ] } },
{ "type": "Feature", "properties": { "kod": "2104", "namn": "Hofors" }, "geometry": { "type": "Polygon", "coordinates": [ [ [ 16.1472193, 60.6048772 ], [ 16.4031111, 60.3815247 ], [ 16.5206626, 60.3645225 ], [ 16.2413091, 60.6185706 ], [ 16.1472193, 60.6048772 ] ] ] } },
{ "type": "Feature", "properties": { "kod": "2121", "namn": "Ovanåker" }, "geometry": { "type": "Polygon", "coordinates": [ [ [ 16.0305953, 61.547036 ], [ 15.6720989, 61.6369557 ], [ 15.2301767, 61.5124224 ], [ 15.7581285, 61.0601782 ], [ 15.9341244, 61.0122066 ], [ 16.2801505, 61.3906523 ], [ 16.0305953, 61.547036 ] ] ] } },
{ "type": "Feature", "properties": { "kod": "2132", "namn": "Nordanstig" }, "geometry": { "type": "Polygon", "coordinates": [ [ [ 16.0601429, 62.2509263 ], [ 16.7128039, 62.0643977 ], [ 16.9527249, 61.8535969 ], [ 17.3168431, 61.8639865 ], [ 17.4796036, 62.1473956 ], [ 16.2402976, 62.2536321 ], [ 16.0601429, 62.2509263 ] ] ] } },
{ "type": "Feature", "properties": { "kod": "2161", "namn": "Ljusdal" }, "geometry": { "type": "Polygon", "coordinates": [ [ [ 15.2301767, 61.5124224 ], [ 15.6720989, 61.6369557 ], [ 16.0305953, 61.547036 ], [ 16.6155551, 61.6399729 ], [ 16.290363, 61.8013942 ], [ 16.0214894, 62.2707936 ], [ 15.6200019, 62.3582582 ], [ 15.3244089, 62.2890291 ], [ 15.4123358, 62.1283894 ], [ 14.6899224, 61.9123762 ], [ 14.5007101, 61.6301926 ], [ 15.0693293, 61.4928187 ], [ 15.2301767, 61.5124224 ] ] ] } },
{ "type": "Feature", "properties": { "kod": "2180", "namn": "Gävle" }, "geometry": { "type": "Polygon", "coordinates": [ [ [ 16.8999792, 61.0441351 ], [ 16.8587603, 60.7758529 ], [ 16.798524, 60.3812441 ], [ 16.9057627, 60.2871335 ], [ 17.1995254, 60.3091931 ], [ 17.3007861, 60.4711374 ], [ 17.3507794, 60.6523344 ], [ 17.1580643, 61.0569076 ], [ 16.8999792, 61.0441351 ] ] ] } },
{ "type": "Feature", "properties": { "kod": "2181", "namn": "Sandviken" }, "geometry": { "type": "Polygon", "coordinates": [ [ [ 16.40095, 60.7877102 ], [ 16.2413091, 60.6185706 ], [ 16.5206626, 60.3645225 ], [ 16.7204437, 60.1999074 ], [ 16.9057627, 60.2871335 ], [ 16.798524, 60.3812441 ], [ 16.8587603, 60.7758529 ], [ 16.40095, 60.7877102 ] ] ] } },
{ "type": "Feature", "properties": { "kod": "2182", "namn": "Söderhamn" }, "geometry": { "type": "Polygon", "coordinates": [ [ [ 16.6875532, 61.4928926 ], [ 16.7102833, 61.1704726 ], [ 16.5584984, 61.0904576 ], [ 16.8999792, 61.0441351 ], [ 17.1580643, 61.0569076 ], [ 17.1059763, 61.4185167 ], [ 16.6875532, 61.4928926 ] ] ] } },
{ "type": "Feature", "properties": { "kod": "2183", "namn": "Bollnäs" }, "geometry": { "type": "Polygon", "coordinates": [ [ [ 16.6875532, 61.4928926 ], [ 16.6155551, 61.6399729 ], [ 16.0305953, 61.547036 ], [ 16.2801505, 61.3906523 ], [ 15.9341244, 61.0122066 ], [ 16.1425761, 61.000723 ], [ 16.5584984, 61.0904576 ], [ 16.7102833, 61.1704726 ], [ 16.6875532, 61.4928926 ] ] ] } },
{ "type": "Feature", "properties": { "kod": "2184", "namn": "Hudiksvall" }, "geometry": { "type": "Polygon", "coordinates": [ [ [ 16.6875532, 61.4928926 ], [ 17.1059763, 61.4185167 ], [ 17.3798377, 61.7678135 ], [ 17.3168431, 61.8639865 ], [ 16.9527249, 61.8535969 ], [ 16.7128039, 62.0643977 ], [ 16.0601429, 62.2509263 ], [ 16.0214894, 62.2707936 ], [ 16.290363, 61.8013942 ], [ 16.6155551, 61.6399729 ], [ 16.6875532, 61.4928926 ] ] ] } },
{ "type": "Feature", "properties": { "kod": "2260", "namn": "Ånge" }, "geometry": { "type": "Polygon", "coordinates": [ [ [ 16.3680573, 62.7077616 ], [ 14.9163927, 62.6132579 ], [ 14.8054491, 62.4160154 ], [ 15.3244089, 62.2890291 ], [ 15.6200019, 62.3582582 ], [ 16.0214894, 62.2707936 ], [ 16.0601429, 62.2509263 ], [ 16.2402976, 62.2536321 ], [ 16.5578778, 62.6031091 ], [ 16.3680573, 62.7077616 ] ] ] } },
{ "type": "Feature", "properties": { "kod": "2262", "namn": "Timrå" }, "geometry": { "type": "Polygon", "coordinates": [ [ [ 17.1674933, 62.860346 ], [ 16.9610303, 62.7547709 ], [ 17.3886526, 62.5074957 ], [ 17.748679, 62.5114571 ], [ 17.1674933, 62.860346 ] ] ] } },
{ "type": "Feature", "properties": { "kod": "2280", "namn": "Härnösand" }, "geometry": { "type": "Polygon", "coordinates": [ [ [ 17.338239, 62.91504 ], [ 17.1674933, 62.860346 ], [ 17.748679, 62.5114571 ], [ 18.0625593, 62.6153196 ], [ 18.0076684, 62.7858005 ], [ 17.338239, 62.91504 ] ] ] } },
{ "type": "Feature", "properties": { "kod": "2281", "namn": "Sundsvall" }, "geometry": { "type": "Polygon", "coordinates": [ [ [ 17.3886526, 62.5074957 ], [ 16.9610303, 62.7547709 ], [ 17.1674933, 62.860346 ], [ 17.0118728, 62.954245 ], [ 16.4726201, 62.8219718 ], [ 16.3680573, 62.7077616 ], [ 16.5578778, 62.6031091 ], [ 16.2402976, 62.2536321 ], [ 17.4796036, 62.1473956 ], [ 17.6419376, 62.2515723 ], [ 17.3886526, 62.5074957 ] ] ] } },
{ "type": "Feature", "properties": { "kod": "2282", "namn": "Kramfors" }, "geometry": { "type": "Polygon", "coordinates": [ [ [ 18.0281849, 63.2080409 ], [ 17.2230406, 63.0397233 ], [ 17.338239, 62.91504 ], [ 18.0076684, 62.7858005 ], [ 18.3825952, 62.8437297 ], [ 18.5012437, 63.081515 ], [ 18.0281849, 63.2080409 ] ] ] } },
{ "type": "Feature", "properties": { "kod": "2283", "namn": "Sollefteå" }, "geometry": { "type": "Polygon", "coordinates": [ [ [ 17.1674933, 62.860346 ], [ 17.338239, 62.91504 ], [ 17.2230406, 63.0397233 ], [ 18.0281849, 63.2080409 ], [ 17.5425844, 63.2990045 ], [ 17.2279706, 63.721877 ], [ 17.2605826, 63.9298098 ], [ 16.8450681, 63.9679085 ], [ 16.7241181, 64.026864 ], [ 16.6134239, 63.7183578 ], [ 15.9883702, 63.65847 ], [ 15.9724866, 63.516264 ], [ 15.9832922, 63.4468959 ], [ 17.0118728, 62.954245 ], [ 17.1674933, 62.860346 ] ] ] } },
{ "type": "Feature", "properties": { "kod": "2284", "namn": "Örnsköldsvik" }, "geometry": { "type": "Polygon", "coordinates": [ [ [ 18.8003686, 63.7967314 ], [ 18.3817747, 64.0083433 ], [ 17.7074631, 63.893288 ], [ 17.2605826, 63.9298098 ], [ 17.2279706, 63.721877 ], [ 17.5425844, 63.2990045 ], [ 18.0281849, 63.2080409 ], [ 18.5012437, 63.081515 ], [ 19.0990346, 63.2462246 ], [ 19.2781522, 63.4792989 ], [ 18.8003686, 63.7967314 ] ] ] } },
{ "type": "Feature", "properties": { "kod": "2303", "namn": "Ragunda" }, "geometry": { "type": "Polygon", "coordinates": [ [ [ 15.4857363, 63.3656921 ], [ 15.3205133, 63.1489559 ], [ 15.5241431, 63.0743186 ], [ 16.3446886, 63.0684743 ], [ 16.4726201, 62.8219718 ], [ 17.0118728, 62.954245 ], [ 15.9832922, 63.4468959 ], [ 15.9724866, 63.516264 ], [ 15.4857363, 63.3656921 ] ] ] } },
{ "type": "Feature", "properties": { "kod": "2305", "namn": "Bräcke" }, "geometry": { "type": "Polygon", "coordinates": [ [ [ 14.9163927, 62.6132579 ], [ 16.3680573, 62.7077616 ], [ 16.4726201, 62.8219718 ], [ 16.3446886, 63.0684743 ], [ 15.5241431, 63.0743186 ], [ 15.3205133, 63.1489559 ], [ 14.7740479, 62.9065872 ], [ 14.9163927, 62.6132579 ] ] ] } },
{ "type": "Feature", "properties": { "kod": "2309", "namn": "Krokom" }, "geometry": { "type": "Polygon", "coordinates": [ [ [ 14.1297975, 64.4059903 ], [ 13.962332, 64.0141922 ], [ 13.2809815, 64.0865256 ], [ 13.4445719, 63.7714737 ], [ 13.4664033, 63.4280981 ], [ 14.0061567, 63.3237565 ], [ 14.5917898, 63.2194223 ], [ 14.5110441, 63.4541048 ], [ 14.9237834, 63.6021428 ], [ 14.9626257, 63.9311202 ], [ 14.767237, 64.2902741 ], [ 14.1297975, 64.4059903 ] ] ] } },
{ "type": "Feature", "properties": { "kod": "2313", "namn": "Strömsund" }, "geometry": { "type": "Polygon", "coordinates": [ [ [ 15.4857363, 63.3656921 ], [ 15.9724866, 63.516264 ], [ 15.9883702, 63.65847 ], [ 16.6134239, 63.7183578 ], [ 16.7241181, 64.026864 ], [ 16.2057416, 64.2843942 ], [ 15.3613056, 64.5943538 ], [ 14.7201952, 64.9889412 ], [ 14.3301431, 65.1310368 ], [ 13.6628536, 64.5897754 ], [ 14.1297975, 64.4059903 ], [ 14.767237, 64.2902741 ], [ 14.9626257, 63.9311202 ], [ 14.9237834, 63.6021428 ], [ 15.4857363, 63.3656921 ] ] ] } },
{ "type": "Feature", "properties": { "kod": "2321", "namn": "Åre" }, "geometry": { "type": "Polygon", "coordinates": [ [ [ 14.0061567, 63.3237565 ], [ 13.4664033, 63.4280981 ], [ 13.4445719, 63.7714737 ], [ 13.2809815, 64.0865256 ], [ 12.6577527, 63.9713646 ], [ 12.1329642, 63.584198 ], [ 11.9621874, 63.2681079 ], [ 12.1961021, 62.9955998 ], [ 12.0743428, 62.9033945 ], [ 13.2579213, 63.0440999 ], [ 14.3690487, 63.0694563 ], [ 14.0061567, 63.3237565 ] ] ] } },
{ "type": "Feature", "properties": { "kod": "2326", "namn": "Berg" }, "geometry": { "type": "Polygon", "coordinates": [ [ [ 14.9163927, 62.6132579 ], [ 14.7740479, 62.9065872 ], [ 14.4878307, 63.0053794 ], [ 14.3690487, 63.0694563 ], [ 13.2579213, 63.0440999 ], [ 12.0743428, 62.9033945 ], [ 12.1301027, 62.7512934 ], [ 13.2818743, 62.6592397 ], [ 13.8220279, 62.7168127 ], [ 14.3454718, 62.3071915 ], [ 14.8054491, 62.4160154 ], [ 14.9163927, 62.6132579 ] ] ] } },
{ "type": "Feature", "properties": { "kod": "2361", "namn": "Härjedalen" }, "geometry": { "type": "Polygon", "coordinates": [ [ [ 12.3021548, 62.2615546 ], [ 12.7956107, 62.2303494 ], [ 13.6130943, 61.6712252 ], [ 13.9831096, 61.6346686 ], [ 14.414767, 61.5861928 ], [ 14.5007101, 61.6301926 ], [ 14.6899224, 61.9123762 ], [ 15.4123358, 62.1283894 ], [ 15.3244089, 62.2890291 ], [ 14.8054491, 62.4160154 ], [ 14.3454718, 62.3071915 ], [ 13.8220279, 62.7168127 ], [ 13.2818743, 62.6592397 ], [ 12.1301027, 62.7512934 ], [ 12.0508125, 62.6159807 ], [ 12.3021548, 62.2615546 ] ] ] } },
{ "type": "Feature", "properties": { "kod": "2380", "namn": "Östersund" }, "geometry": { "type": "Polygon", "coordinates": [ [ [ 15.4857363, 63.3656921 ], [ 14.9237834, 63.6021428 ], [ 14.5110441, 63.4541048 ], [ 14.5917898, 63.2194223 ], [ 14.4878307, 63.0053794 ], [ 14.7740479, 62.9065872 ], [ 15.3205133, 63.1489559 ], [ 15.4857363, 63.3656921 ] ] ] } },
{ "type": "Feature", "properties": { "kod": "2401", "namn": "Nordmaling" }, "geometry": { "type": "Polygon", "coordinates": [ [ [ 18.8003686, 63.7967314 ], [ 19.2781522, 63.4792989 ], [ 19.7473747, 63.5429749 ], [ 19.6853915, 63.8168415 ], [ 19.5274815, 63.8790404 ], [ 18.8003686, 63.7967314 ] ] ] } },
{ "type": "Feature", "properties": { "kod": "2403", "namn": "Bjurholm" }, "geometry": { "type": "Polygon", "coordinates": [ [ [ 18.8003686, 63.7967314 ], [ 19.5274815, 63.8790404 ], [ 19.3675112, 64.0481309 ], [ 19.1544117, 64.1407129 ], [ 18.7713516, 64.0732282 ], [ 18.3817747, 64.0083433 ], [ 18.8003686, 63.7967314 ] ] ] } },
{ "type": "Feature", "properties": { "kod": "2404", "namn": "Vindeln" }, "geometry": { "type": "Polygon", "coordinates": [ [ [ 19.3675112, 64.0481309 ], [ 19.7908886, 64.0915132 ], [ 20.1202808, 64.3910945 ], [ 19.3594192, 64.7558024 ], [ 19.2820304, 64.7821703 ], [ 18.9561838, 64.4358286 ], [ 19.1544117, 64.1407129 ], [ 19.3675112, 64.0481309 ] ] ] } },
{ "type": "Feature", "properties": { "kod": "2409", "namn": "Robertsfors" }, "geometry": { "type": "Polygon", "coordinates": [ [ [ 20.7395237, 63.8708148 ], [ 21.2244191, 64.2858712 ], [ 20.8810241, 64.4488319 ], [ 20.2892344, 64.3402711 ], [ 20.7395237, 63.8708148 ] ] ] } },
{ "type": "Feature", "properties": { "kod": "2417", "namn": "Norsjö" }, "geometry": { "type": "Polygon", "coordinates": [ [ [ 19.3594192, 64.7558024 ], [ 20.1846341, 64.8684398 ], [ 19.5988072, 65.1910846 ], [ 19.4135941, 65.150037 ], [ 18.752271, 64.9784468 ], [ 19.2820304, 64.7821703 ], [ 19.3594192, 64.7558024 ] ] ] } },
{ "type": "Feature", "properties": { "kod": "2418", "namn": "Malå" }, "geometry": { "type": "Polygon", "coordinates": [ [ [ 18.1686948, 65.2424942 ], [ 18.752271, 64.9784468 ], [ 19.4135941, 65.150037 ], [ 19.2851779, 65.2578633 ], [ 18.2935442, 65.5254232 ], [ 18.1686948, 65.2424942 ] ] ] } },
{ "type": "Feature", "properties": { "kod": "2421", "namn": "Storuman" }, "geometry": { "type": "Polygon", "coordinates": [ [ [ 14.501966, 65.4576987 ], [ 15.7088638, 65.41903 ], [ 16.100814, 65.3346795 ], [ 16.5747639, 65.0363783 ], [ 17.5464774, 64.7329009 ], [ 17.9630071, 65.0520587 ], [ 17.0735844, 65.3132779 ], [ 16.536201, 65.5766554 ], [ 15.551053, 65.8225513 ], [ 14.980191, 66.1493362 ], [ 14.5345202, 66.1382818 ], [ 14.6384975, 65.8200309 ], [ 14.501966, 65.4576987 ] ] ] } },
{ "type": "Feature", "properties": { "kod": "2422", "namn": "Sorsele" }, "geometry": { "type": "Polygon", "coordinates": [ [ [ 18.1686948, 65.2424942 ], [ 18.2935442, 65.5254232 ], [ 18.1800504, 65.592137 ], [ 17.6609848, 65.6709501 ], [ 16.7788502, 66.0531168 ], [ 16.5787056, 66.0546229 ], [ 15.464675, 66.3544881 ], [ 14.980191, 66.1493362 ], [ 15.551053, 65.8225513 ], [ 16.536201, 65.5766554 ], [ 17.0735844, 65.3132779 ], [ 17.9630071, 65.0520587 ], [ 18.1686948, 65.2424942 ] ] ] } },
{ "type": "Feature", "properties": { "kod": "2425", "namn": "Dorotea" }, "geometry": { "type": "Polygon", "coordinates": [ [ [ 14.7201952, 64.9889412 ], [ 15.3613056, 64.5943538 ], [ 16.2057416, 64.2843942 ], [ 16.7241181, 64.026864 ], [ 16.8450681, 63.9679085 ], [ 16.7224437, 64.3647977 ], [ 16.1448969, 64.5519953 ], [ 15.4874499, 64.8796003 ], [ 14.7201952, 64.9889412 ] ] ] } },
{ "type": "Feature", "properties": { "kod": "2460", "namn": "Vännäs" }, "geometry": { "type": "Polygon", "coordinates": [ [ [ 19.3675112, 64.0481309 ], [ 19.5274815, 63.8790404 ], [ 19.6853915, 63.8168415 ], [ 19.7908886, 64.0915132 ], [ 19.3675112, 64.0481309 ] ] ] } },
{ "type": "Feature", "properties": { "kod": "2462", "namn": "Vilhelmina" }, "geometry": { "type": "Polygon", "coordinates": [ [ [ 17.7136893, 64.5148261 ], [ 17.5464774, 64.7329009 ], [ 16.5747639, 65.0363783 ], [ 16.100814, 65.3346795 ], [ 15.7088638, 65.41903 ], [ 14.501966, 65.4576987 ], [ 14.3301431, 65.1310368 ], [ 14.7201952, 64.9889412 ], [ 15.4874499, 64.8796003 ], [ 16.1448969, 64.5519953 ], [ 16.7224437, 64.3647977 ], [ 17.7136893, 64.5148261 ] ] ] } },
{ "type": "Feature", "properties": { "kod": "2463", "namn": "Åsele" }, "geometry": { "type": "Polygon", "coordinates": [ [ [ 18.7713516, 64.0732282 ], [ 17.7136893, 64.5148261 ], [ 16.7224437, 64.3647977 ], [ 16.8450681, 63.9679085 ], [ 17.2605826, 63.9298098 ], [ 17.7074631, 63.893288 ], [ 18.3817747, 64.0083433 ], [ 18.7713516, 64.0732282 ] ] ] } },
{ "type": "Feature", "properties": { "kod": "2480", "namn": "Umeå" }, "geometry": { "type": "Polygon", "coordinates": [ [ [ 19.7908886, 64.0915132 ], [ 19.6853915, 63.8168415 ], [ 19.7473747, 63.5429749 ], [ 20.3977762, 63.6900911 ], [ 20.7395237, 63.8708148 ], [ 20.2892344, 64.3402711 ], [ 20.1202808, 64.3910945 ], [ 19.7908886, 64.0915132 ] ] ] } },
{ "type": "Feature", "properties": { "kod": "2481", "namn": "Lycksele" }, "geometry": { "type": "Polygon", "coordinates": [ [ [ 18.1686948, 65.2424942 ], [ 17.9630071, 65.0520587 ], [ 17.5464774, 64.7329009 ], [ 17.7136893, 64.5148261 ], [ 18.7713516, 64.0732282 ], [ 19.1544117, 64.1407129 ], [ 18.9561838, 64.4358286 ], [ 19.2820304, 64.7821703 ], [ 18.752271, 64.9784468 ], [ 18.1686948, 65.2424942 ] ] ] } },
{ "type": "Feature", "properties": { "kod": "2482", "namn": "Skellefteå" }, "geometry": { "type": "Polygon", "coordinates": [ [ [ 21.2244191, 64.2858712 ], [ 21.5683469, 64.4397718 ], [ 21.2514899, 64.6110094 ], [ 21.2671245, 64.8992937 ], [ 21.5013387, 65.0805669 ], [ 19.8810177, 65.3944248 ], [ 19.5988072, 65.1910846 ], [ 20.1846341, 64.8684398 ], [ 19.3594192, 64.7558024 ], [ 20.1202808, 64.3910945 ], [ 20.2892344, 64.3402711 ], [ 20.8810241, 64.4488319 ], [ 21.2244191, 64.2858712 ] ] ] } },
{ "type": "Feature", "properties": { "kod": "2505", "namn": "Arvidsjaur" }, "geometry": { "type": "Polygon", "coordinates": [ [ [ 18.2935442, 65.5254232 ], [ 19.2851779, 65.2578633 ], [ 19.4135941, 65.150037 ], [ 19.5988072, 65.1910846 ], [ 19.8810177, 65.3944248 ], [ 20.2083877, 65.6056135 ], [ 20.2191551, 65.9191795 ], [ 19.3686348, 66.0633946 ], [ 19.0496267, 66.1754774 ], [ 18.4539287, 65.928615 ], [ 18.4071785, 65.6975436 ], [ 18.2702755, 65.6706236 ], [ 18.1800504, 65.592137 ], [ 18.2935442, 65.5254232 ] ] ] } },
{ "type": "Feature", "properties": { "kod": "2506", "namn": "Arjeplog" }, "geometry": { "type": "Polygon", "coordinates": [ [ [ 18.2702755, 65.6706236 ], [ 18.4071785, 65.6975436 ], [ 18.4539287, 65.928615 ], [ 19.0496267, 66.1754774 ], [ 18.7066676, 66.5164872 ], [ 17.6924717, 66.7279865 ], [ 17.1661061, 66.9625943 ], [ 16.4246109, 67.1687354 ], [ 15.3884841, 66.4844131 ], [ 15.464675, 66.3544881 ], [ 16.5787056, 66.0546229 ], [ 16.7788502, 66.0531168 ], [ 17.6609848, 65.6709501 ], [ 18.1800504, 65.592137 ], [ 18.2702755, 65.6706236 ] ] ] } },
{ "type": "Feature", "properties": { "kod": "2510", "namn": "Jokkmokk" }, "geometry": { "type": "Polygon", "coordinates": [ [ [ 21.2992915, 66.2906521 ], [ 20.9927449, 66.628409 ], [ 19.8333943, 66.9756892 ], [ 18.8760033, 67.3668762 ], [ 17.4761142, 67.6807072 ], [ 16.7700897, 67.913311 ], [ 16.5294837, 67.6044108 ], [ 16.1139128, 67.4213581 ], [ 16.4246109, 67.1687354 ], [ 17.1661061, 66.9625943 ], [ 17.6924717, 66.7279865 ], [ 18.7066676, 66.5164872 ], [ 19.0496267, 66.1754774 ], [ 19.3686348, 66.0633946 ], [ 20.2191551, 65.9191795 ], [ 20.3808015, 66.0115407 ], [ 20.7758623, 66.3453084 ], [ 21.2992915, 66.2906521 ] ] ] } },
{ "type": "Feature", "properties": { "kod": "2513", "namn": "Överkalix" }, "geometry": { "type": "Polygon", "coordinates": [ [ [ 23.0518904, 66.6742457 ], [ 22.1384782, 66.8498449 ], [ 21.9693176, 66.4276951 ], [ 22.1224989, 66.3003023 ], [ 22.3352849, 66.1316898 ], [ 22.5272141, 66.227116 ], [ 23.2198571, 66.1559468 ], [ 23.0518904, 66.6742457 ] ] ] } },
{ "type": "Feature", "properties": { "kod": "2514", "namn": "Kalix" }, "geometry": { "type": "Polygon", "coordinates": [ [ [ 22.6191944, 65.7798324 ], [ 23.5953988, 65.7977983 ], [ 23.3380257, 66.0491374 ], [ 23.2198571, 66.1559468 ], [ 22.5272141, 66.227116 ], [ 22.3352849, 66.1316898 ], [ 22.6191944, 65.7798324 ] ] ] } },
{ "type": "Feature", "properties": { "kod": "2518", "namn": "Övertorneå" }, "geometry": { "type": "Polygon", "coordinates": [ [ [ 23.3380257, 66.0491374 ], [ 23.8616617, 66.1653367 ], [ 23.6338151, 66.3174641 ], [ 23.8890668, 66.5842852 ], [ 23.8895718, 66.9134707 ], [ 23.2653153, 66.9771237 ], [ 23.4074319, 66.6996605 ], [ 23.0518904, 66.6742457 ], [ 23.2198571, 66.1559468 ], [ 23.3380257, 66.0491374 ] ] ] } },
{ "type": "Feature", "properties": { "kod": "2521", "namn": "Pajala" }, "geometry": { "type": "Polygon", "coordinates": [ [ [ 23.8895718, 66.9134707 ], [ 23.5758814, 67.176762 ], [ 23.7857378, 67.4266287 ], [ 23.4146865, 67.4930449 ], [ 23.6444379, 67.9705847 ], [ 23.2803759, 68.1595944 ], [ 22.8027326, 67.8361644 ], [ 22.4523529, 67.7413418 ], [ 21.9818959, 67.3656517 ], [ 21.8727435, 67.277425 ], [ 22.1384782, 66.8498449 ], [ 23.0518904, 66.6742457 ], [ 23.4074319, 66.6996605 ], [ 23.2653153, 66.9771237 ], [ 23.8895718, 66.9134707 ] ] ] } },
{ "type": "Feature", "properties": { "kod": "2523", "namn": "Gällivare" }, "geometry": { "type": "Polygon", "coordinates": [ [ [ 16.7700897, 67.913311 ], [ 17.4761142, 67.6807072 ], [ 18.8760033, 67.3668762 ], [ 19.8333943, 66.9756892 ], [ 20.9927449, 66.628409 ], [ 21.2992915, 66.2906521 ], [ 21.9693176, 66.4276951 ], [ 22.1384782, 66.8498449 ], [ 21.8727435, 67.277425 ], [ 21.9818959, 67.3656517 ], [ 21.8010696, 67.4615693 ], [ 21.0986191, 67.4977602 ], [ 20.3935002, 67.7174855 ], [ 19.3511767, 67.8645455 ], [ 18.3523196, 67.854275 ], [ 17.9453135, 67.977913 ], [ 17.2991801, 68.0966909 ], [ 16.7700897, 67.913311 ] ] ] } },
{ "type": "Feature", "properties": { "kod": "2560", "namn": "Älvsbyn" }, "geometry": { "type": "Polygon", "coordinates": [ [ [ 20.2191551, 65.9191795 ], [ 20.2083877, 65.6056135 ], [ 20.9594217, 65.5191552 ], [ 21.3622553, 65.6694983 ], [ 20.3808015, 66.0115407 ], [ 20.2191551, 65.9191795 ] ] ] } },
{ "type": "Feature", "properties": { "kod": "2580", "namn": "Luleå" }, "geometry": { "type": "Polygon", "coordinates": [ [ [ 21.9098879, 65.4212249 ], [ 22.3241186, 65.5557243 ], [ 22.6191944, 65.7798324 ], [ 22.3352849, 66.1316898 ], [ 22.1224989, 66.3003023 ], [ 22.093235, 65.8617305 ], [ 21.3622553, 65.6694983 ], [ 21.9098879, 65.4212249 ] ] ] } },
{ "type": "Feature", "properties": { "kod": "2581", "namn": "Piteå" }, "geometry": { "type": "Polygon", "coordinates": [ [ [ 20.2083877, 65.6056135 ], [ 19.8810177, 65.3944248 ], [ 21.5013387, 65.0805669 ], [ 21.6351402, 65.4156339 ], [ 21.9098879, 65.4212249 ], [ 21.3622553, 65.6694983 ], [ 20.9594217, 65.5191552 ], [ 20.2083877, 65.6056135 ] ] ] } },
{ "type": "Feature", "properties": { "kod": "2582", "namn": "Boden" }, "geometry": { "type": "Polygon", "coordinates": [ [ [ 21.3622553, 65.6694983 ], [ 22.093235, 65.8617305 ], [ 22.1224989, 66.3003023 ], [ 21.9693176, 66.4276951 ], [ 21.2992915, 66.2906521 ], [ 20.7758623, 66.3453084 ], [ 20.3808015, 66.0115407 ], [ 21.3622553, 65.6694983 ] ] ] } },
{ "type": "Feature", "properties": { "kod": "2583", "namn": "Haparanda" }, "geometry": { "type": "Polygon", "coordinates": [ [ [ 23.8616617, 66.1653367 ], [ 23.3380257, 66.0491374 ], [ 23.5953988, 65.7977983 ], [ 24.1495709, 65.803779 ], [ 23.8616617, 66.1653367 ] ] ] } },
{ "type": "Feature", "properties": { "kod": "2584", "namn": "Kiruna" }, "geometry": { "type": "Polygon", "coordinates": [ [ [ 23.2803759, 68.1595944 ], [ 23.0777189, 68.3135496 ], [ 21.4322717, 68.7024465 ], [ 20.8029685, 69.0293488 ], [ 20.3200537, 68.9113383 ], [ 20.2446259, 68.4960497 ], [ 19.9130348, 68.3635272 ], [ 18.9804492, 68.5042491 ], [ 18.1115078, 68.5137517 ], [ 18.1660691, 68.1688718 ], [ 17.9453135, 67.977913 ], [ 18.3523196, 67.854275 ], [ 19.3511767, 67.8645455 ], [ 20.3935002, 67.7174855 ], [ 21.0986191, 67.4977602 ], [ 21.8010696, 67.4615693 ], [ 21.9818959, 67.3656517 ], [ 22.4523529, 67.7413418 ], [ 22.8027326, 67.8361644 ], [ 23.2803759, 68.1595944 ] ] ] } }
]
}
