{
"type": "FeatureCollection",
"name": "lan",
"features": [
{ "type": "Feature", "properties": { "kod": "01", "namn": "Stockholms" }, "geometry": { "type": "Polygon", "coordinates": [ [ [ 17.2847537, 59.2679568 ], [ 17.2890239, 59.0501151 ], [ 17.6189543, 58.9048463 ], [ 17.9521803, 58.9134886 ], [ 18.3871123, 59.2221393 ], [ 18.0603456, 59.3779945 ], [ 18.6672569, 59.5773675 ], [ 19.0844602, 59.8715432 ], [ 18.7991339, 60.1719836 ], [ 18.5110258, 60.1548714 ], [ 18.3737917, 59.8689088 ], [ 17.5669226, 59.5619786 ], [ 17.9482514, 59.3185877 ], [ 17.2847537, 59.2679568 ] ] ] } },
{ "type": "Feature", "properties": { "kod": "03", "namn": "Uppsala" }, "geometry": { "type": "Polygon", "coordinates": [ [ [ 16.9048208, 59.5674026 ], [ 17.5669226, 59.5619786 ], [ 18.3737917, 59.8689088 ], [ 18.5110258, 60.1548714 ], [ 18.5810413, 60.344181 ], [ 18.1018112, 60.438116 ], [ 17.9077484, 60.6026233 ], [ 17.3507794, 60.6523344 ], [ 17.1995254, 60.3091931 ], [ 16.7204437, 60.1999074 ], [ 16.7442131, 59.7812878 ], [ 16.9048208, 59.5674026 ] ] ] } },
{ "type": "Feature", "properties": { "kod": "04", "namn": "Södermanlands" }, "geometry": { "type": "Polygon", "coordinates": [ [ [ 15.6323376, 59.0031971 ], [ 15.861301, 58.998557 ], [ 16.3694561, 58.7099676 ], [ 16.7483646, 58.6324526 ], [ 17.3883673, 58.7466015 ], [ 17.6189543, 58.9048463 ], [ 17.2890239, 59.0501151 ], [ 17.2847537, 59.2679568 ], [ 16.8388457, 59.4805026 ], [ 16.2308441, 59.4427065 ], [ 15.8544147, 59.2996682 ], [ 15.7698102, 59.1500382 ], [ 15.6323376, 59.0031971 ] ] ] } },
{ "type": "Feature", "properties": { "kod": "05", "namn": "Östergötlands" }, "geometry": { "type": "Polygon", "coordinates": [ [ [ 14.537647, 58.1061351 ], [ 14.9819835, 58.117655 ], [ 15.1413463, 57.7076465 ], [ 15.4158547, 57.7009114 ], [ 16.2518427, 58.157988 ], [ 16.7488185, 58.0041518 ], [ 16.8476098, 58.2831376 ], [ 16.7483646, 58.6324526 ], [ 16.3694561, 58.7099676 ], [ 15.861301, 58.998557 ], [ 15.6323376, 59.0031971 ], [ 14.9395751, 58.6990589 ], [ 14.537647, 58.1061351 ] ] ] } },
{ "type": "Feature", "properties": { "kod": "06", "namn": "Jönköpings" }, "geometry": { "type": "Polygon", "coordinates": [ [ [ 15.4158547, 57.7009114 ], [ 15.1413463, 57.7076465 ], [ 14.9819835, 58.117655 ], [ 14.537647, 58.1061351 ], [ 14.2130299, 58.1456872 ], [ 13.7763428, 58.0499834 ], [ 13.6820859, 57.5612415 ], [ 13.1333143, 57.1491384 ], [ 13.6849819, 56.9863608 ], [ 14.7876644, 57.2320738 ], [ 15.5299749, 57.1999568 ], [ 15.4158547, 57.7009114 ] ] ] } },
{ "type": "Feature", "properties": { "kod": "07", "namn": "Kronobergs" }, "geometry": { "type": "Polygon", "coordinates": [ [ [ 15.5299749, 57.1999568 ], [ 14.7876644, 57.2320738 ], [ 13.6849819, 56.9863608 ], [ 13.2962837, 56.8472907 ], [ 13.4572243, 56.4309574 ], [ 14.1333767, 56.5077762 ], [ 14.5243875, 56.458068 ], [ 14.879974, 56.3632968 ], [ 15.3357394, 56.4868429 ], [ 15.5299749, 57.1999568 ] ] ] } },
{ "type": "Feature", "properties": { "kod": "08", "namn": "Kalmar" }, "geometry": { "type": "Polygon", "coordinates": [ [ [ 15.5299749, 57.1999568 ], [ 15.3357394, 56.4868429 ], [ 16.0520585, 56.324143 ], [ 16.3536247, 56.6824654 ], [ 16.4803757, 57.2861898 ], [ 16.6896668, 57.4856748 ], [ 16.7488185, 58.0041518 ], [ 16.2518427, 58.157988 ], [ 15.4158547, 57.7009114 ], [ 15.5299749, 57.1999568 ] ] ] } },
{ "type": "Feature", "properties": { "kod": "09", "namn": "Gotlands" }, "geometry": { "type": "Polygon", "coordinates": [ [ [ 18.4803825, 57.8360773 ], [ 18.0909302, 57.5242878 ], [ 18.1311815, 57.1739394 ], [ 18.6568019, 57.2355252 ], [ 18.7973574, 57.7511544 ], [ 18.4803825, 57.8360773 ] ] ] } },
{ "type": "Feature", "properties": { "kod": "10", "namn": "Blekinge" }, "geometry": { "type": "Polygon", "coordinates": [ [ [ 14.5243875, 56.458068 ], [ 14.5459651, 56.0456941 ], [ 14.7750642, 56.1523361 ], [ 15.3173263, 56.1371156 ], [ 16.0520585, 56.324143 ], [ 15.3357394, 56.4868429 ], [ 14.879974, 56.3632968 ], [ 14.5243875, 56.458068 ] ] ] } },
{ "type": "Feature", "properties": { "kod": "12", "namn": "Skåne" }, "geometry": { "type": "Polygon", "coordinates": [ [ [ 14.5243875, 56.458068 ], [ 14.1333767, 56.5077762 ], [ 13.4572243, 56.4309574 ], [ 12.9037868, 56.4442354 ], [ 12.5858337, 56.1389778 ], [ 13.0511981, 55.7025637 ], [ 12.9742921, 55.404762 ], [ 13.3357474, 55.3400252 ], [ 14.3633615, 55.5425668 ], [ 14.2093455, 55.8287485 ], [ 14.5459651, 56.0456941 ], [ 14.5243875, 56.458068 ] ] ] } },
{ "type": "Feature", "properties": { "kod": "13", "namn": "Hallands" }, "geometry": { "type": "Polygon", "coordinates": [ [ [ 13.4572243, 56.4309574 ], [ 13.2962837, 56.8472907 ], [ 13.6849819, 56.9863608 ], [ 13.1333143, 57.1491384 ], [ 12.5276355, 57.3224775 ], [ 12.2840434, 57.6041825 ], [ 11.9473534, 57.5611054 ], [ 11.9877203, 57.3612549 ], [ 12.3586666, 56.934892 ], [ 12.6234689, 56.8298372 ], [ 12.9037868, 56.4442354 ], [ 13.4572243, 56.4309574 ] ] ] } },
{ "type": "Feature", "properties": { "kod": "14", "namn": "Västra Götalands" }, "geometry": { "type": "Polygon", "coordinates": [ [ [ 11.9473534, 57.5611054 ], [ 12.2840434, 57.6041825 ], [ 12.5276355, 57.3224775 ], [ 13.1333143, 57.1491384 ], [ 13.6820859, 57.5612415 ], [ 13.7763428, 58.0499834 ], [ 14.2130299, 58.1456872 ], [ 14.721473, 58.7017848 ], [ 14.4681468, 58.7243588 ], [ 14.2679613, 58.999743 ], [ 14.1168557, 59.0410009 ], [ 13.7700896, 58.7061284 ], [ 12.8909878, 58.500372 ], [ 12.4929271, 58.750465 ], [ 12.7725896, 59.070416 ], [ 12.2310419, 59.2735673 ], [ 11.8203225, 59.2355287 ], [ 11.6499441, 58.9187674 ], [ 11.1314456, 59.0118375 ], [ 11.3347969, 58.3725662 ], [ 11.9190501, 58.2042592 ], [ 11.7165506, 57.8409533 ], [ 11.9473534, 57.5611054 ] ] ] } },
{ "type": "Feature", "properties": { "kod": "17", "namn": "Värmlands" }, "geometry": { "type": "Polygon", "coordinates": [ [ [ 12.7725896, 59.070416 ], [ 13.2840652, 59.3658707 ], [ 14.0323961, 59.3214103 ], [ 14.1168557, 59.0410009 ], [ 14.2679613, 58.999743 ], [ 14.4629708, 59.4474957 ], [ 14.4384779, 60.0257077 ], [ 14.137801, 60.2443214 ], [ 13.4969222, 60.4471279 ], [ 13.1754876, 60.7660944 ], [ 12.676351, 61.0580769 ], [ 12.2328255, 61.0190498 ], [ 12.6029828, 60.5228645 ], [ 12.4476373, 60.038984 ], [ 11.6962539, 59.5882348 ], [ 11.8203225, 59.2355287 ], [ 12.2310419, 59.2735673 ], [ 12.7725896, 59.070416 ] ] ] } },
{ "type": "Feature", "properties": { "kod": "18", "namn": "Örebro" }, "geometry": { "type": "Polygon", "coordinates": [ [ [ 15.6168838, 59.3228569 ], [ 15.5987757, 59.6334921 ], [ 15.4018026, 59.8611476 ], [ 15.0665615, 60.0697079 ], [ 14.4384779, 60.0257077 ], [ 14.4629708, 59.4474957 ], [ 14.2679613, 58.999743 ], [ 14.4681468, 58.7243588 ], [ 14.721473, 58.7017848 ], [ 14.9395751, 58.6990589 ], [ 15.6323376, 59.0031971 ], [ 15.7698102, 59.1500382 ], [ 15.6168838, 59.3228569 ] ] ] } },
{ "type": "Feature", "properties": { "kod": "19", "namn": "Västmanlands" }, "geometry": { "type": "Polygon", "coordinates": [ [ [ 15.4018026, 59.8611476 ], [ 15.5987757, 59.6334921 ], [ 15.6168838, 59.3228569 ], [ 15.8544147, 59.2996682 ], [ 16.2308441, 59.4427065 ], [ 16.9048208, 59.5674026 ], [ 16.7442131, 59.7812878 ], [ 16.7204437, 60.1999074 ], [ 16.3778208, 60.0851917 ], [ 15.7791333, 60.182182 ], [ 15.4018026, 59.8611476 ] ] ] } },
{ "type": "Feature", "properties": { "kod": "20", "namn": "Dalarnas" }, "geometry": { "type": "Polygon", "coordinates": [ [ [ 12.676351, 61.0580769 ], [ 13.1754876, 60.7660944 ], [ 13.4969222, 60.4471279 ], [ 14.137801, 60.2443214 ], [ 14.4384779, 60.0257077 ], [ 15.0665615, 60.0697079 ], [ 15.4018026, 59.8611476 ], [ 15.7791333, 60.182182 ], [ 16.3778208, 60.0851917 ], [ 16.7204437, 60.1999074 ], [ 16.1472193, 60.6048772 ], [ 16.40095, 60.7877102 ], [ 16.1425761, 61.000723 ], [ 15.7581285, 61.0601782 ], [ 15.2301767, 61.5124224 ], [ 14.5007101, 61.6301926 ], [ 13.6130943, 61.6712252 ], [ 12.7956107, 62.2303494 ], [ 12.3021548, 62.2615546 ], [ 12.1608734, 61.725301 ], [ 12.8622414, 61.3606797 ], [ 12.676351, 61.0580769 ] ] ] } },
{ "type": "Feature", "properties": { "kod": "21", "namn": "Gävleborgs" }, "geometry": { "type": "Polygon", "coordinates": [ [ [ 14.5007101, 61.6301926 ], [ 15.2301767, 61.5124224 ], [ 15.7581285, 61.0601782 ], [ 16.1425761, 61.000723 ], [ 16.40095, 60.7877102 ], [ 16.1472193, 60.6048772 ], [ 16.7204437, 60.1999074 ], [ 17.1995254, 60.3091931 ], [ 17.3507794, 60.6523344 ], [ 17.1616168, 60.9525935 ], [ 17.1130345, 61.5511698 ], [ 17.3798377, 61.7678135 ], [ 17.4796036, 62.1473956 ], [ 15.3244089, 62.2890291 ], [ 15.4123358, 62.1283894 ], [ 14.6899224, 61.9123762 ], [ 14.5007101, 61.6301926 ] ] ] } },
{ "type": "Feature", "properties": { "kod": "22", "namn": "Västernorrlands" }, "geometry": { "type": "Polygon", "coordinates": [ [ [ 15.3244089, 62.2890291 ], [ 17.4796036, 62.1473956 ], [ 17.4143031, 62.3339252 ], [ 18.5422531, 62.990585 ], [ 19.0990346, 63.2462246 ], [ 19.2781522, 63.4792989 ], [ 18.9026283, 63.8020538 ], [ 18.3817747, 64.0083433 ], [ 17.7074631, 63.893288 ], [ 16.7241181, 64.026864 ], [ 16.6134239, 63.7183578 ], [ 15.9883702, 63.65847 ], [ 15.9832922, 63.4468959 ], [ 17.0118728, 62.954245 ], [ 16.6604635, 62.93246 ], [ 16.3680573, 62.7077616 ], [ 14.7947808, 62.6014567 ], [ 14.9470756, 62.3250066 ], [ 15.3244089, 62.2890291 ] ] ] } },
{ "type": "Feature", "properties": { "kod": "23", "namn": "Jämtlands" }, "geometry": { "type": "Polygon", "coordinates": [ [ [ 15.3244089, 62.2890291 ], [ 14.9470756, 62.3250066 ], [ 14.7947808, 62.6014567 ], [ 16.3680573, 62.7077616 ], [ 16.6604635, 62.93246 ], [ 17.0118728, 62.954245 ], [ 15.9832922, 63.4468959 ], [ 15.9883702, 63.65847 ], [ 16.6134239, 63.7183578 ], [ 16.7241181, 64.026864 ], [ 15.3613056, 64.5943538 ], [ 14.3301431, 65.1310368 ], [ 13.6628536, 64.5897754 ], [ 14.1236167, 64.4681962 ], [ 13.962332, 64.0141922 ], [ 13.17971, 64.0958703 ], [ 12.6577527, 63.9713646 ], [ 12.1329642, 63.584198 ], [ 11.9621874, 63.2681079 ], [ 12.1961021, 62.9955998 ], [ 12.0508125, 62.6159807 ], [ 12.3021548, 62.2615546 ], [ 12.7956107, 62.2303494 ], [ 13.6130943, 61.6712252 ], [ 14.5007101, 61.6301926 ], [ 14.6899224, 61.9123762 ], [ 15.4123358, 62.1283894 ], [ 15.3244089, 62.2890291 ] ] ] } },
{ "type": "Feature", "properties": { "kod": "24", "namn": "Västerbottens" }, "geometry": { "type": "Polygon", "coordinates": [ [ [ 19.2781522, 63.4792989 ], [ 20.6629394, 63.8139391 ], [ 20.9578125, 64.1510238 ], [ 21.5683469, 64.4397718 ], [ 21.2514899, 64.6110094 ], [ 21.2671245, 64.8992937 ], [ 21.5013387, 65.0805669 ], [ 19.8810177, 65.3944248 ], [ 19.2851779, 65.2578633 ], [ 17.6609848, 65.6709501 ], [ 16.7788502, 66.0531168 ], [ 15.464675, 66.3544881 ], [ 15.0375025, 66.1523766 ], [ 14.5345202, 66.1382818 ], [ 14.6384975, 65.8200309 ], [ 14.3301431, 65.1310368 ], [ 15.3613056, 64.5943538 ], [ 16.7241181, 64.026864 ], [ 17.7074631, 63.893288 ], [ 18.3817747, 64.0083433 ], [ 18.9026283, 63.8020538 ], [ 19.2781522, 63.4792989 ] ] ] } },
{ "type": "Feature", "properties": { "kod": "25", "namn": "Norrbottens" }, "geometry": { "type": "Polygon", "coordinates": [ [ [ 15.464675, 66.3544881 ], [ 16.7788502, 66.0531168 ], [ 17.6609848, 65.6709501 ], [ 19.2851779, 65.2578633 ], [ 19.8810177, 65.3944248 ], [ 21.5013387, 65.0805669 ], [ 21.6351402, 65.4156339 ], [ 22.3241186, 65.5557243 ], [ 22.4396267, 65.8707249 ], [ 23.110592, 65.7170409 ], [ 23.7555671, 65.8266364 ], [ 23.6540581, 66.4688465 ], [ 24.0136176, 66.8216612 ], [ 23.5758814, 67.176762 ], [ 23.7857378, 67.4266287 ], [ 23.3967154, 68.0505965 ], [ 23.0777189, 68.3135496 ], [ 21.4322717, 68.7024465 ], [ 20.8029685, 69.0293488 ], [ 20.3200537, 68.9113383 ], [ 20.2446259, 68.4960497 ], [ 19.9130348, 68.3635272 ], [ 18.9804492, 68.5042491 ], [ 18.1115078, 68.5137517 ], [ 18.1660691, 68.1688718 ], [ 17.9172946, 67.9449773 ], [ 17.2991801, 68.0966909 ], [ 16.711395, 67.8926444 ], [ 16.5294837, 67.6044108 ], [ 16.1139128, 67.4213581 ], [ 16.3753767, 67.0196166 ], [ 15.3884841, 66.4844131 ], [ 15.464675, 66.3544881 ] ] ] } }
]
}
